venue_id,Name,City,State,Street,Zip,Area,Category_1,Category_2,Category_3,Category_4,Category_5
0,(512) Brewing Company,Austin, Texas,407 Radam Ln Ste F200,78745,,,Brewery,,,
1,1 Stop Beer Wine & Cigar,Wylie, Texas,456 Country Club Rd,75098,,,,Store,,
2,11 Below Brewing,Houston, Texas,6820 Bourgeois Rd,77066,, Bar,Brewery,,,
3,160ft Beerworks,Houston, Texas,1310 Nance St,77002,, Bar,Brewery,,,
4,19th Hole Liquor Beer & Wine,Harker Heights, Texas,553 W Veterans Memorial Blvd,76548,,,,Store,,
5,210 Ceviche,San Antonio, Texas,9502 IH-10 West Ste 101,78230,,Bar,,,, Eatery
6,24 Diner,Austin, Texas,600 N Lamar Blvd,78703,,Bar,,,, Eatery
7,3 Double- 0 Nine Restaurant & Bar,Schertz, Texas,17460 IH 35 N Ste 500,78154,,Bar,,,, Eatery
8,3 Nations Brewing Co.,Farmers Branch, Texas,2405 Squire Pl #200,75234,, Bar,,"Brewery, Bar",,
9,3rd Floor,Houston, Texas,2303 Smith St,77006,,Bar,,,, Eatery
10,4th Tap Brewing Co-op,Austin, Texas,10615 Metric Blvd,78758,, Bar,Brewery, Bar,,
11,5 Stones Craft Brewing Co.,Cibolo, Texas,850 Schneider Dr,78108,,,Brewery,,,
12,54th Street Grill & Bar - Stone Oak,San Antonio, Texas,22902 US Highway 281 N ,78258,,Bar,,,, Eatery
13,575 Pizzeria,Amarillo, Texas,2803 Civic Cir,79109,,Bar,,,, Eatery
14,600 Degrees Pizza and Drafthouse,Georgetown, Texas,124 E 8th St,78626,,Bar,,,, Eatery
15,7-Eleven Store # 36999,Austin, Texas,823 Congress St,78701,,,,Store,,
16,8th Wonder Brewery,Houston, Texas,2202 Dallas St,77003,, Bar,Brewery,,,
17,903 Brewers,Sherman, Texas,1718 S Elm St,75090,,,Brewery,,,
18,AAFES Class VI,Ft Hood, Texas,Clear Creek Rd,76544,,,,Store,,
19,AB Beer & Wine,Royse City, Texas,125 E Main St,75189,,,,Store,,
20,ABC Liquor,Austin, Texas,2121 W Parmer Ln #105,78727,,,,Store,,
21,Abel's North,Austin, Texas,4001 W Parmer Ln,78727,, Bar,,,, Eatery
22,Cypress Street Station Home of the Abilene Brewing Co.,Abilene, Texas,158 Cypress St,79601,, Bar,Brewery,,, Eatery
23,AD Beer & Wine,Garland, Texas,565 W Oates Rd Ste 115,75043,,,,Store,,
24,Adelbert's Brewery,Austin, Texas,2314 Rutland Dr Ste #100,78758,, Bar,Brewery,,,
25,AJ's Ale House,New Braunfels, Texas,236 W San Antonio St,78130,,Bar,, Eatery,,
26,Alamo Beer Co.,San Antonio, Texas,415 Burnet St,78202,, Bar,Brewery, Bar,,
27,Alamo Drafthouse,New Braunfels, Texas,651 N Business IH 35,78130,,Bar,, Eatery,,
28,Alamo Drafthouse - Park North,San Antonio, Texas,618 NW Loop 410,78216,,Bar,, Eatery,,
29,Alamo Drafthouse - Vintage Park,Houston, Texas,114 Vintage Park Blvd,77070,,Bar,, Eatery,,
30,Alamo Drafthouse Cinema - Downtown,Texas\, Texas,320 E 6th St,78701,,Bar,,,,
31,Alamo Drafthouse Cinema - Slaughter Lane,Austin, Texas,5701 W Slaughter Ln,78749,,Bar,,,, Eatery
32,Alamo Drafthouse Cinema - South Lamar,Austin, Texas,1120 South Lamar Blvd,78704,,Bar,,,, Eatery
33,Alamo Drafthouse Cinema - Village,Austin, Texas,2700 W Anderson Lane,78757,,Bar,,,,
34,Alamo Drafthouse Cinema - Westlakes,San Antonio, Texas,1255 SW Loop 410,78227,,Bar,,Store,,Eatery
35,Alamo Drafthouse Mason,Katy, Texas,531 South Mason Rd,77450,,Bar,,,,
36,Alamo Lakeline,Austin, Texas,14028 US 183,78717,,Bar,Bar,,,Eatery
37,Albertson's,Azle, Texas,480 Northwest Pkwy,76020,,,,Store,,
38,Alfredo's Mexican Restaurant,Fort Stockton, Texas,2103 W Dickinson Blvd,79735,,Bar,,,, Eatery
39,Alpine Haus Restaurant,New Braunfels, Texas,251 S Seguin Ave,78130,,Bar,,,, Eatery
40,Altdorf Biergarten,Fredericksburg, Texas,301 W Main St,78624,,Bar,,,, Eatery
41,Altstadt Brewery,Fredericksburg, Texas,6120 E US Hwy 290,78624,,,Brewery,,,
42,Angel's Beverage Center,Plano, Texas,2540 East  Pkwy,75074,,,,Store,,
43,Angry Dog,Dallas, Texas,2726 Commerce St,75226,Deep Ellum,Bar,,,, Eatery
44,Antebellum Ale House,Weatherford, Texas,321 E Oak St,76086,,Bar,,,, Eatery
45,Antiques Art & Beer,Shiner, Texas,720 N Ave E,77984,,Bar,, Store,,
46,Anvil Bar & Refuge,Houston, Texas,1424 Westheimer Rd Ste B,77006,,Bar,,,, Eatery
47,Anvil Pub,Dallas, Texas,2638 Elm St,75226,Deep Ellum,Bar,,,,
48,AquaBrew,San Marcos, Texas,150 S LBJ Dr,78666,, Bar,Brewery,,, Eatery
49,Arlington Bottle Shop,Arlington, Texas,3000 Meadowbrook,76013,,,,Store,,
50,Armadillo Ale Works,Denton, Texas,221 S Bell Ave,76202,,,Brewery,,,
51,Artic Liquor,Lewisville, Texas,4695 Highway 121 Ste 104,75056,,,,Store,,
52,Ashford Pub,Houston, Texas,13308 Westheimer Rd,77077,,Bar,,Ashford Pub,,
53,Audacity Brewhouse,Denton, Texas,1012 Shady Oaks Dr,76205,, Bar,Brewery,,, Eatery
54,The Auslander Restaurant and Biergarten,Fredericksburg, Texas,323 E Main St,78624,,Bar,,,, Eatery
55,Austin Ale House,Austin, Texas,301 W 6th St,78701,,Bar,,,, Eatery
56,Austin Beer Garden Brewing Co.,Austin, Texas,1305 W Oltorf St,78704,, Bar,Brewery,,, Eatery
57,Austin Beerworks,Austin, Texas,3009 Industrial Terrace  Ste 150,78758,, Bar,Brewery,,,
58,Austin Homebrew Supply,Austin, Texas,9129 Metric Blvd,78758,,,,Store,,
59,Axelrad Beer Garden,Houston, Texas,1517 Alabama St,77004,,Bar,,,,
60,B & J Pizza,Corpus Christi, Texas,6335 S. Padre Island Dr,78412,,Bar,,,, Eatery
61,B & J's Pizza,Corpus Christi, Texas,6662 S Staples St,78414,, Bar,Brewery,,, Eatery
62,B&S Brewers Guild,Seabrook, Texas,3560 NASA Pkwy,77586,,,,,Homebrew Store,
63,B-52 Brewing Co.,Conroe, Texas,12470 Milroy Ln,77304,, Bar,Brewery,,,
64,B. B. Rover's Cafe & Pub,Austin, Texas,12636 Research Blvd Ste B101,78759,,Bar,,,, Eatery
65,Baa Baa Brewhouse,Brookshire, Texas,539 FM-359,77423,,Bar,Brewery,,,
66,Back Pew Brewing Company,Porter, Texas,26452 Sorters-McLellan Rd,77365,,,Brewery,,,
67,Backcountry Brewery,Rowlett, Texas,3313 Enterprise Dr,75088,, Bar,Brewery,,,
68,Backyard Grill,Houston, Texas,9453 Jones Rd,77065,,Bar,,,, Eatery
69,Backyard Home Brewers and Education Center,Humble, Texas,802 E 1st St Ste 200,77338,,,,,Homebrew Store,
70,Baker St Pub & Grill,Cypress, Texas,25618 Highway 290,77429,,Bar,,,, Eatery
71,Baker Street Pub & Grill,Austin, Texas,3003 S Lamar Blvd,78704,,Bar,,,, Eatery
72,Bakfish Brewing,Pearland, Texas,1231 Broadway St,77581,, Bar,Brewery,,,
73,Banger's Sausage House & Beer Garden,Austin, Texas,79 Rainey St,78701,,Bar,,,, Eatery
74,Bankhead Brewing Co,Rowlett, Texas,3840 Main St,75088,, Bar,Brewery,,, Eatery
75,Bar America,San Antonio, Texas,723 S. Alamo St,78205,,Bar,,,,
76,Bar D Brewhouse,San Saba, Texas,213 N High St,76877,, Bar,Brewery,,, Eatery
77,Barcadia Dallas,Dallas, Texas,1917 N Henderson Ave,75206,Lower Greenville,Bar,,,, Eatery
78,Bare Arms Brewing,Waco, Texas,2515 La Salle Ave,76706,, Bar,Brewery,,,
79,Barley House,Dallas, Texas,5612 SMU Blvd,75206,Lower Greenville,Bar,,,, Eatery
80,Barley Swine,Austin, Texas,2024 S Lamar Blvd,78704,,Bar,,,, Eatery
81,Barley-Hoppers Drafthouse,Abilene, Texas,721 S 1st St,79602,,Bar,,,,
82,Barrow Brewing Company,Salado, Texas,108 Royal StSalado,76571,, Bar,Brewery,,,
83,Bash Riprock's,Lubbock, Texas,2419 Main St,79401,,Bar,,,, Eatery
84,Bavarian Grill,Plano, Texas,221 W Parker Rd,75023,,Bar,,,, Eatery
85,Bayview Duck,Bacliff, Texas,3131 Highway 146,77518,,Bar,,,, Eatery
86,Bearded Fox Brewing,Tomball, Texas,11729 Spring  Rd,77377,, Bar,Brewery,,,
87,Beaver's,Houston, Texas,2310 Decatur St,77007,,Bar,,,, Eatery
88,Beer & Wine World,Mansfield, Texas,26 E Debbie Ln Ste 102,76063,,,,Store,,
89,Beer Market Co,Houston, Texas,920 Studemont St,77007,,Bar,,,, Eatery
90,Beerfoot Beach Bar,Galveston, Texas,2816 Avenue R,77550,, Bar,Brewery,,,
91,Beers Looking At You,Webster, Texas,17074 Highway 3,77598,,,,Store,,
92,Bernadine's,Houston, Texas,1801 N Shepherd Dr Ste B,77008,,Bar,,,, Eatery
93,Big Bend Brewing Co.,Alpine, Texas,3401 W Highway 90,79830,,,Brewery,,,
94,Big Hops - Broadway,San Antonio, Texas,8313 Broadway St,78209,,Bar,,,,
95,Big Hops - Huebner,San Antonio, Texas,11224 Huebner Rd Ste 204,78230,,Bar,,,,
96,Big Hops - The Bridge,San Antonio, Texas,306 Austin St,78215,,Bar,,,,
97,Big Texan Brewery,Amarillo, Texas,7701 I-40 E,79118,, Bar,Brewery,,, Eatery
98,Big Thicket Brewery,Lufkin, Texas,113 W Shepherd AveRd,75904,, Bar,Brewery,,,
99,Billy's on Burnet,Austin, Texas,2105 Hancock Dr,78756,,Bar,,,, Eatery
100,Bird Caf_,Fort Worth, Texas,155 E 4th St,76102,,Bar,,,, Eatery
101,Bitter Sisters Brewing Company,Addison, Texas,15103 Surveyor Blvd,75001,, Bar,Brewery,,,
102,BJ's Brewery & Tasting Room,Temple, Texas,602 E Central Ave,76501,, Bar,Brewery,,,
103,BJ's Restaurant,McAllen, Texas,3200 E Expressway 83Palms Crossing Shopping Center,78501,,,, Store,, Eatery
104,BJ's Restaurant,Temple, Texas,3550 S. General Bruce Dr,76504,,Bar,,,, Eatery
105,BJ's Restaurant,San Antonio, Texas,22406 US Highway 281 North Village of Stone Oak,78258,,Bar,,,, Eatery
106,BJ's Restaurant,Addison, Texas,4901 Belt Line Rd,75254,,Bar,,,, Eatery
107,BJ's Restaurant,Austin, Texas,5207 Brodie Lane #300,78745,,Bar,,,, Eatery
108,BJ's Restaurant,Pearland, Texas,11200 Broadway,77584,,Bar,,,, Eatery
109,BJ's Restaurant & Brewery,Sugar Land, Texas,2231 State Highway 6,77478,,Bar,,,, Eatery
110,BJ's Restaurant & Brewery,Lewisville, Texas,2609 S Stemmons Fwy,75067,,Bar,,,, Eatery
111,BJ's Restaurant & Brewery,Clear Lake, Texas,515 W Bay Area Blvd,77598,,Bar,,,, Eatery
112,BJ's Restaurant & Brewhouse,Fort Worth, Texas,4720 S Hulen St,76132,,Bar,,,, Eatery
113,BJ's Restaurant & Brewhouse,Waco, Texas,5929 W  Dr,76710,,Bar,,,, Eatery
114,BJ's Restaurant & Brewhouse,Houston, Texas,7637 FM 1960 Rd W,77070,, Bar,Brewery,,, Eatery
115,BJ's Restaurant & Brewhouse,Arlington, Texas,201 E Interstate 20,76018,, Bar,Brewery,,, Eatery
116,BJ's Restaurant & Brewhouse,Allen, Texas,190 E Stacy Rd Ste 3300,75002,,Bar,,,, Eatery
117,BJ's Restaurant & Brewhouse,Plano, Texas,1101 N Central Expy,75075,,Bar,,,, Eatery
118,BJ's Restaurant & Brewhouse,New Braunfels, Texas,2951 Cold Spring Dr,78130,,Bar,,,, Eatery
119,BJ's Restaurant & Brewhouse,Lubbock, Texas,4805 S Loop 289,79424,, Bar,Brewery,,, Eatery
120,BJ's Restaurant & Brewhouse,Hurst, Texas,952 NE Loop 820,76053,,Bar,,,, Eatery
121,BJ's Restaurant & Brewhouse,College Station, Texas,1520 Harvey Rd,77840,,Bar,,,, Eatery
122,BJ's Restaurant And Brewhouse,El Paso, Texas,11905 Gateway Blvd,79936,,Bar,,,, Eatery
123,BJ's Restaurant And Brewhouse,Mesquite, Texas,1106 Town East Mall,75150,,Bar,,,,
124,Black Sheep Lodge,Austin, Texas,2108 S Lamar Blvd,78704,,Bar,,,, Eatery
125,Black Star Co-op Pub & Brewery,Austin, Texas,7020 Easy Wind Dr,78752,, Bar,Brewery,,, Eatery
126,Black Whale Pub,New Braunfels, Texas,367 Main Plaza,78130,,Bar,,,,
127,Blackfriar Pub,Dallas, Texas,2621 Mckinney Ave,75204,Uptown,Bar,,,, Eatery
128,Blackwater Draw Brewing Co.,College Station, Texas,303 Boyett St,77840,, Bar,Brewery,,, Eatery
129,Blackwater Draw Brewing Company,Bryan, Texas,701 N Main St,77803,, Bar,Brewery,,,
130,Block Table & Tap,El Paso, Texas,4172 N Mesa St,79902,,Bar,,,, Eatery
131,Blu Crab Seafood House & Bar,Fort Worth, Texas,6115 Camp Bowie Blvd #104,76116,,Bar,,,, Eatery
132,Blue Danube,Pantego, Texas,2230-A W Park Row Dr,76013,,Bar,,,, Eatery
133,Blue Owl Brewing,Austin, Texas,2400 East Cesar Chavez St #300,78702,, Bar,Brewery,,,
134,Blue Star Brewing Company,San Antonio, Texas,1414 S. Alamo #105,78210,, Bar,Brewery,,, Eatery
135,Bluebonnet Beer Company,Round Rock, Texas,1700 Bryant Dr Ste 107,78664,, Bar,Brewery,,,
136,Boerne Brewery,Boerne, Texas,9 Hill View Lane,78006,,,Brewery,,,
137,Boneshakers,San Antonio, Texas,306 Austin St,78215,,Bar,,,, Eatery
138,Boo-Ray's of New Orleans,Fort Worth, Texas,7255 Boat Club Rd,76179,,Bar,,,, Eatery
139,Boomerjack's Grill And Bar,Arlington, Texas,522 Linclon Sq,76011,,Bar,,,, Eatery
140,Boondoggles Pub,El Lago, Texas,4106 NASA Pkwy,77586,,Bar,,,, Eatery
141,Bootlegger's,San Antonio, Texas,8055 West Ave Ste 103,78213,,,,Store,,
142,Bovine & Barley,Houston, Texas,416 Main St,77002,,Bar,,,, Eatery
143,Braindead Brewing,Dallas, Texas,2625 Main St,75226,Deep Ellum, Bar,Brewery,,, Eatery
144,Branchline Brewing Co.,San Antonio, Texas,3633 Metro Pkwy,78247,,,Brewery,,,
145,Brash Brewing Company,Houston, Texas,512 Crosstimbers,77022,, Bar,Brewery,,,
146,Brasil Caf\'e9,Houston, Texas,2604 Dunlavy St,77006,,Bar,,,, Eatery
147,Brazos Valley Brewing Company,Brenham, Texas,201 W First St,77833,, Bar,Brewery,,,
148,Bread Basket,Kyle, Texas,5671 FM 2770Kyle,78640,,,,Store,,
149,Bread Basket,Austin, Texas,8801 West Gate Blvd,78745,,,,Store,,
150,Brew It Yourself,Spring, Texas,25770 Interstate 45 Ste 107,77386,,,,,Homebrew Store,
151,Brew Sports Pub East,El Paso, Texas,1441 N Zaragoza Rd,79936,,Bar,,,, Eatery
152,Brew Sports Pub West,El Paso, Texas,8041 N Mesa St,79932,,Bar,,,, Eatery
153,Brewed,Fort Worth, Texas,801 W Magnolia Ave,76104,,Bar,,,, Eatery
154,Brews Brothers,Galveston, Texas,2404 Strand St,77550,, Bar,Brewery,,,
155,Brick House Tavern + Tap,Fort Worth, Texas,6300 North Fwy,76137,,Bar,,,, Eatery
156,Brick House Tavern + Tap,Houston, Texas,12910 Highway 290,77040,,Bar,,,, Eatery
157,Brick House Tavern + Tap,San Antonio, Texas,1011 N Loop 1604 E,78232,,Bar,,,, Eatery
158,Brick House Tavern And Tap,Plano, Texas,4900 W Park Ave,75093,,Bar,,,, Eatery
159,Brick Oven Pizza Company,Abilene, Texas,4714 S 14th St,79605,,Bar,,,, Eatery
160,Brigadoon Brewery & Brew School,Plantersville, Texas,21778 FM 1774 Booth 150,77363,, Bar,Brewery,, Homebrew Store,
161,BRIX Wine Cellars,Houston, Texas,110 Vintage Park Blvd Ste T,77070,,Bar,,,, Eatery
162,Broadway Beer & Wine,Garland, Texas,5335 Broadway Blvd Ste 210,75043,,,,Store,,
163,Brookshire's,Azle, Texas,511 N Stewart St,76020,,,,Store,,
164,Zoigl Brewery,College Station, Texas,211C W William J Bryan Pkwy,77803,,Bar,Brewery,,,
165,BS Brewing,Seguin, Texas,1408 Old Lehmann Rd,78155,,Bar,Brewery,,,
166,BT's Grill,The Woodlands, Texas,399 Sawdust Rd,77380,,Bar,,,, Eatery
167,Buck Easy's,Big Spring, Texas,1700 S Gregg St,79720,,,,Store,,
168,Buckeye Liquor,Dallas, Texas,7610 Greenville,75231,Lake Highlands,,,Store,,
169,Buckeye Liquor,Lake Dallas, Texas,104 N. Stemmons,75065,,,,Store,,
170,Buddy's Beer Barn,El Paso, Texas,10150 Montana,79925,,,,Store,,
171,Budweiser Tasting Room,Houston, Texas,775 Gellhorn Dr,77029,,Bar,,,,
172,Buffalo Bayou Brewing Co,Houston, Texas,5301 Nolda St,77007,, Bar,Brewery,,,
173,Buffalo Wild Wings,Webster, Texas,528 W Bay Area Blvd Ste 400,77598,, Eatery,Bar,,, Eatery
174,Bull Creek Brewing,Liberty Hill, Texas,7100 FM 3405,78642,, Bar,Brewery,,,
175,Burleson Yard Beer Garden,San Antonio, Texas,430 Austin St,78209,,Bar,,,,
176,Bushwackers Wine Safari,Denton, Texas,221 W Oak St,76201,,,,Store,,
177,Busted Sandal Brewing Company,San Antonio, Texas,7114 Oaklawn Dr,78229,, Bar,Brewery,,,
178,Buy Low Liquor,Commerce, Texas,1407 Chestnut St ,75428,,,,Store,,
179,Cactus Land Brewing Co.,Adkins, Texas,368 County Rd 325,78101,, Bar,Brewery,,,
180,Canyon Golf Market,San Antonio, Texas,26180 Canyon Golf Rd,78260,,,,Store,,
181,Capitol Pub,Dallas, Texas,2401 N Henderson,75206,Lower Greenville,Bar,,,,
182,Carney's Pub & Grill,Bryan, Texas,3410 S College Ave,77801,,Bar,,,, Eatery
183,Carolina Ale House,Killeen, Texas,3214 E Central Texas Expy,76543,,Bar,,,, Eatery
184,Carry On Convenience Store,San Antonio, Texas,11311 Huebner Rd,78230,,,,Store,,
185,Castle Spirits,Lewisville, Texas,2540 King Arthur Blvd Ste 150,75056,,,,Store,,
186,Caves Lounge,Arlington, Texas,900 W Division St,76012,,Bar,,,, Eatery
187,Cedar Creek Brewery,Kemp, Texas,244 E Cedar Creek Pkwy,75143,,,Brewery,,,
188,Cedar Creek Caf_ Bar and Grill,Houston, Texas,1034 W 20th St,77008,,Bar,,,, Eatery
189,Celebration Liquor,Marfa, Texas,1309 W San Antonio St PO Box 1269,79831,,,,Store,,
190,Celebration Liquors,Alpine, Texas,704 W Holland Ave,79830,,,,Store,,
191,Cellarman's American Pub,Sherman, Texas,2130 Texoma Pkwy,75090,,Bar,,,, Eatery
192,Central Market,Plano, Texas,320 Coit Rd,75075,,,,Store,,
193,Central Market,Southlake, Texas,1425 E Southlake Blvd,76092,,,,Store,,
194,Central Market,San Antonio, Texas,4821 Broadway St,78209,,,,Store,,
195,Central Market,Fort Worth, Texas,4651 West Fwy,76107,,,,Store,,
196,Central Market,Houston, Texas,3815 Westheimer Rd,77027,,,,Store,,
197,Central Market - Lovers,Dallas, Texas,5750 E Lovers Ln,75206,Lower Greenville,,,Store,,
198,Central Market - North Lamar,Austin, Texas,4001 N Lamar Blvd,78756,,,,Store,,
199,Central Market - Westgate,Austin, Texas,4477 S Lamar Blvd,78745,,,,Store,,
200,Cherrywood Coffeehouse,Austin, Texas,1400 E 38th 1/2 St,78722,,Bar,,,, Eatery
201,Chester's Hamburger Co.,Universal City, Texas,621 Pat Booker Rd,78148,,Bar,,,, Eatery
202,Chimera Brewing,Fort Worth, Texas,1001 W Magnolia Ave,76104,, Bar,Brewery,,, Eatery
203,Choice Beverage,Mckinney, Texas,4600 Eldorado Pkwy Ste 700,75070,,,,Store,,
204,Chop House Burger,Euless, Texas,2720 State Highway 121 Ste 600,76039,,Bar,,,, Eatery
205,Chop House Burger,Dallas, Texas,1501 Main St,75201,Uptown,Bar,,,, Eatery
206,Chug's Liquor Store,Shamrock, Texas,108 E 12th St,79079,,,,Store,,
207,Churchill's British Restaurant & Pub,McKinney, Texas,100 N Tennessee St,75069,,Bar,,,, Eatery
208,Cibolo Creek Brewing Company,Boerne, Texas,448 S Main St,78006,, Bar,Brewery,,, Eatery
209,Cigar Frog's,Midland, Texas,216 N Main St,79701,,Bar,,,,
210,Circle Brewing Company,Austin, Texas,2340 W Braker Ln,78758,, Bar,Brewery,,,
211,City Acre Brewing,Houston, Texas,3418 Topping St,77093,, Bar,Brewery,,, Eatery
212,Class Six,Fort Bliss, Texas,BLDG 1610 Haan RdFort Bliss,79916,,,,Store,,
213,Clementine Coffee Bar,Austin, Texas,2200 Manor Rd,78722,,Bar,,,, Eatery
214,Cobra Brewing Company,Lewisville, Texas,146 Whatley Ave,75057,, Bar,Brewery,,,
215,Cold Beer Company,Dallas, Texas,3600 Main St,75226,Deep Ellum,Bar,,,, Eatery
216,College Street Restaurant and Pub,Waxahachie, Texas,210 N College StWaxahachie,75165,,Bar,,,, Eatery
217,Common Ground Beer & Wine Bar,El Paso, Texas,12102 Montwood Dr Ste H,79936,,Bar,,,,
218,Community Beer Company,Dallas, Texas,1530 Inspiration Dr Ste 200,75207,Design District, Bar,Brewery,,,
219,Conservatory Underground Beer Garden & Food Hall,Houston, Texas,1010 Prairie St,77002,,Bar,,,, Eatery
220,Continental Liquors,Nacogdoches, Texas,2819 North St,75965,,,,Store,,
221,Cook Hall,Dallas, Texas,2440 Victory Park Lane,75219,Victory Park,Bar,,,, Eatery
222,Copperhead Brewery,Conroe, Texas,822 N Frazier St,77301,, Bar,Brewery,,,
223,Cork Grinders,Baytown, Texas,206 W Texas Ave,77520,,Bar,,,, Eatery
224,Corner Food Mart Shell,Friendswood, Texas,3640 FM 528,77546,,,,Store,,
225,Corner Street Pub,Greenville, Texas,2702 Lee St,75401,,Bar,,,, Eatery
226,Cost Plus World Market,Arlington, Texas,239 Curtis Mathes Way,76018,,,,Store,,
227,Cost Plus World Market,Fort Worth, Texas,4701 West Fwy,76107,,,,Store,,
228,Cost Plus World Market,Grapevine, Texas,1317 W State Highway 114 Ste 100,76051,,,,Store,,
229,Cost Plus World Market,College Station, Texas,1450 Texas Ave South,77842,,,,Store,,
230,Cost Plus World Market,Watauga, Texas,7616 Denton Highway,76148,,,,Store,,
231,Cost Plus World Market,The Woodlands, Texas,1620 Lake Woodlands Dr,77380,,,,Store,,
232,Cost Plus World Market,San Antonio, Texas,17414 La Cantera Pkwy #126,78254,,,,Store,,
233,Cottonwood,Houston, Texas,3422 N Shepherd Dr,77018,,Bar,,,, Eatery
234,Craft & Social,El Paso, Texas,305 E Franklin Ave,79901,,Bar,,,, Eatery
235,Craft and Crab Seafood House,Colleyville, Texas,5120 TX-121,76034,,Bar,,,, Eatery
236,Craft and Growler,Dallas, Texas,3601 Parry Ave,75226,Deep Ellum,Bar,,,,
237,Craft Beer Cellar,Houston, Texas,907 Franklin St,77002,,Bar,, Store,,
238,Craft Grill,Tomball, Texas,25219 Kuykendahl Rd #G110,77375,,Bar,,,, Eatery
239,Craft Pride,Austin, Texas,61 Rainey St,78701,,Bar,,,, Eatery
240,Crave Kitchen,El Paso, Texas,11990 Rojas Dr,79936,,Bar,,,, Eatery
241,Crave Kitchen,El Paso, Texas,300 Cincinati Ave,79902,,Bar,,,, Eatery
242,Crestview MiniMax IGA,Austin, Texas,7108 Woodrow Ave,78757,,,,Store,,
243,Cricket's Grill,Waco, Texas,221 Mary Ave,76701,,Bar,,,, Eatery
244,Crickets Grill & Draft House,Lubbock, Texas,2412 Broadway,79401,,Bar,,,, Eatery
245,CRISP,Houston, Texas,2220 Bevis St,77008,,Bar,,,, Eatery
246,Crown & Anchor Pub,Austin, Texas,2911 San Jacinto Blvd,78705,,Bar,,,, Eatery
247,Crush,Amarillo, Texas,701 S Polk St,79101,,Bar,,,, Eatery
248,Cullum's Attagirl Ice House,San Antonio, Texas,726 E Mistletoe Ave,78212,,Bar,,,, Eatery
249,Culpepper Steakhouse,Rockwall, Texas,309 E Interstate 30,75087,,Bar,,,, Eatery
250,Cuvee Coffee,Austin, Texas,2000 E 6th St,78702,,Bar,,,,
251,CVS #213,Austin, Texas,5526 S Congress Ave,78745,,,,Store,,
252,Cycler's Brewing,Montgomery, Texas,Not open to the public,77356,,,Brewery,,,
253,D & Q The Beer Station,Houston, Texas,806 Richmond Ave,77006,,,,Store,,
254,D&T Drive Inn,Houston, Texas,1307 Enid St,77009,,Bar,,,, Eatery
255,Dai Due,Austin, Texas,2406 Manor Rd,78722,,Bar,,,, Eatery
256,Daily Grill,Austin, Texas,11506 Century Oaks Ter,78758,,Bar,,,, Eatery
257,Dallas Beer Kitchen,Dallas, Texas,1802 Greenville Ave,75206,Lower Greenville,Bar,,,, Eatery
258,Dallas Home Brew,Carrollton, Texas,1500 N Interstate 35 E Ste 116,75006,,,,,Homebrew Store,
259,Dancing Bear Pub,Waco, Texas,1117 Speight Ave,76706,,Bar,,,, Eatery
260,Deacon Baldy's Bar & Food Truck Park,Magnolia, Texas,5447 FM 1488,77354,,Bar,,,, Eatery
261,DeadBeach Brewery,El Paso, Texas,406 S Durango St,79901,, Bar,Brewery,,,
262,Deep Ellum Brewing Company,Dallas, Texas,2821 St Louis St,75226,Deep Ellum, Bar,Brewery,,,
263,Defalco's,Houston, Texas,9223 Stella Link Rd,77025,,,,,Homebrew Store,
264,Dicorte's Emporium,Waco, Texas,715 New Dallas HWY,76705,,,,Store,,
265,Dish Society,Katy, Texas,23501 Cinco Ranch Blvd,77494,,Bar,,,, Eatery
266,Division Brewing Company,Arlington, Texas,506 E Main St,76010,, Bar,Brewery,,,
267,Doc's Backyard,Austin, Texas,5207 Brodie Ln Ste 100,78745,, Bar,,,, Eatery
268,Doc's Beer Depot,Lubbock, Texas,1011 Highway 87,79423,,,,Store,,
269,Doc's Liquor,San Antonio, Texas,8806 Bandera Rd Ste 106,78250,,,,Store,,
270,Doc's Liquors,Lubbock, Texas,7021 Quaker Ave,79424,,,,Store,,
271,Double Dave's Pizzaworks,San Antonio, Texas,19186 Blanco Rd,78250,,Bar,, Store,, Eatery
272,Double Horn Brewing Company,Marble Falls, Texas,208 Avenue H ,78654,, Bar,Brewery,,, Eatery
273,Down House,Houston, Texas,1801 Yale St,77008,,Bar,,,, Eatery
274,Dr. Jeckyll's Beer Lab,Arlington, Texas,2420 W Park Row Dr,76013,,,,,Homebrew Store,
275,Draft Pick,Austin, Texas,1620 E Riverside Dr Ste 1618,78741,,Bar,,,, Eatery
276,Draught House Pub & Brewery,Austin, Texas,4112 Medical Pkwy,78741,, Bar,Brewery,,, Eatery
277,Drink Of Ages Pub,Houston, Texas,1005 Waugh Dr,77019,,Bar,, Store,,
278,Drunken Donkey,Lewisville, Texas,301 W Round Grove Rd Ste 109,75067,,Bar,,,, Eatery
279,Drunken Donkey,The Colony, Texas,4897 State Highway 121 Ste 308,75056,,Bar,,,, Eatery
280,Drunken Donkey,Denton, Texas,3350 Unicorn Lake Blvd,76210,,Bar,,,, Eatery
281,E. Braker Ln Food Mart,Austin, Texas,1005 E. Braker Ln Ste 3,78753,,,,Store,,
282,East 1st Grocery,Austin, Texas,1811 E Cesar Chavez St,78702,,,,Store,,
283,Easy Tiger Bake Shop & Beer Garden,Austin, Texas,709 E 6th St,78701,,Bar,,,, Eatery
284,Economy Liquor,Galveston, Texas,1911 23rd St,77550,,,,Store,,
285,Edelweiss,Fort Worth, Texas,3108 Southwest Blvd,76116,,Bar,,,, Eatery
286,Eight Row Flint,Houston, Texas,1039 Yale St,77008,,Bar,,,, Eatery
287,EinStein's Pub,Katy, Texas,873 S Mason Rd Ste 360,77450,,Bar,,,, Eatery
288,El Paso Brewing Company,El Paso, Texas,810 Texas Ave #B,79901,, Bar,Brewery,,, Eatery
289,Elephant Room,Austin, Texas,315 Congress Ave,78701,,Bar,,,,
290,Empire Liquor,Plano, Texas,901 W Spring Creek Pkwy #145,75023,,,,Store,,
291,Eno's Pizza Tavern,Dallas, Texas,407 N Bishop Ave,75208,Oak Cliff,Bar,,,, Eatery
292,Eola School And Lodge,Eola, Texas,12119 FM 381Eola,76937,,,Brewery,,, Eatery
293,ETX Brewing Co.,Tyler, Texas,221 S Broadway Ave,75702,, Bar,Brewery,,,
294,Eureka Heights Brewing Company,Houston, Texas,935 W 18th St,77008,, Bar,Brewery,,,
295,Eureka!,Austin, Texas,200 E 6th St,78701,,Bar,,,, Eatery
296,Exclusive Food Mart,Houston, Texas,16050 West Rd,77095,,,,Store,,
297,Exclusive Food Mart #3,Houston, Texas,455 Hollow Tree Ln,77090,,,,Store,,
298,Fado Irish Pub,Austin, Texas,214 W 4th St,78701,,Bar,,,, Eatery
299,Fanatics,Mission, Texas,2140 E Business Hwy 83,78572,,Bar,,,, Eatery
300,Fat Boss's Pub,San Angelo, Texas,114 South Chadbourne St,76908,,Bar,,,,
301,Fat Dog Beverage,Coffee City, Texas,7630 State Hwy 155,75763,,,,Store,,
302,Feldman's Market Center,McAllen, Texas,100 N 10th St Ste B,78501,,,,Store,,
303,Feldmans Market Center,Laredo, Texas,5506B San Bernardo Ave,78041,,,,Store,,
304,Fetching Lab Brewery,Alvin, Texas,1578 County Rd 423,77511,,,Brewery,,,
305,Filling Station Tap Room,San Antonio, Texas,701 S Saint Mary's St,78205,,Bar,,,,
306,Fion Wine Pub,Austin, Texas,11715 Bee Cave Rd Ste 100,78738,,Bar,, Store,, Eatery
307,Fire Ant Brewing Company,Tomball, Texas,304 Market St,77375,, Bar,Brewery,,,
308,Fish City Grill,San Antonio, Texas,18130 N US Highway 281 Ste 104,78232,,Bar,,,, Eatery
309,Flight School Brewing,Arcola, Texas,503 McKeever,77583,,,Brewery,,,
310,Flix Brewhouse,Round Rock, Texas,2200 S. IH-35 #B1,78681,, Bar,Brewery,,, Eatery
311,Foreman's Home Brewery,Colleyville, Texas,3800  BlvdPO Box 308,76034,,,,,Homebrew Store,
312,Fossil Creek Liquor,Saginaw, Texas,1205 N  Blvd,76179,,,,Store,,
313,Fossil Creek Liquor,Fort Worth, Texas,1900 Western Center Blvd,76131,,,,Store,,
314,Fossil Creek Liquors,Denison, Texas,2730 S US Highway 75,75020,,,,Store,,
315,Four Bullets Brewery,Richardson, Texas,640 N Interurban St,75081,, Bar,Brewery,,,
316,Four Corners Brewing Company,Dallas, Texas,423 Singleton Blvd,75212,Trinity Groves, Bar,Brewery,,,
317,Fox and Hound,Lubbock, Texas,4210 82nd St Ste 240,79423,,Bar,,,, Eatery
318,Fox and Hound,San Antonio, Texas,12651 Vance Jackson Rd Ste 110,78230,,Bar,,,, Eatery
319,Fox and Hound - Westheimer,Houston, Texas,11470 Westheimer Rd,77077,,Bar,,,, Eatery
320,Fox And Hound English Pub & Grill,Dallas, Texas,18918 Midway Rd,75287,North Dallas,Bar,,,, Eatery
321,Fox And Hound English Pub & Grille,Arlington, Texas,1001 N.E. Green Oaks Blvd,76006,,Bar,,,, Eatery
322,Fox And Hound English Pub & Grille,Fort Worth, Texas,6051 SW Loop 820,76132,,Bar,,,, Eatery
323,Fox And Hound English Pub & Grille,Richardson, Texas,112 W Campbell Rd,75080,,Bar,,,, Eatery
324,Fox And Hound English Pub & Grille,College Station, Texas,505 University Dr,77840,,Bar,,,, Eatery
325,Fox's Pizza & Taproom,Schetz, Texas,3900 FM 3009Schetz,78154,,Bar,,,, Eatery
326,Franconia Brewing Company,McKinney, Texas,495  Pkwy,75071,,,Brewery,,,
327,Frank,Austin, Texas,407 Colorado St,78701,,Bar,,,, Eatery
328,Frank Dicorte's Bad Bear Liquor,Waco, Texas,1434 South Valley Mills Dr,76711,,,,Store,,
329,Franklin Barbecue,Austin, Texas,900 E 11th St,78702,,Bar,,,, Eatery
330,Fredericksburg Brewing Company Inc.,Fredericksburg, Texas,245 East Main St,78624,,,Brewery,,, Eatery
331,Fredonia Brewery,Nacogdoches, Texas,138 N Mound St,75961,, Bar,Brewery,,,
332,Freetail Brewing Company,San Antonio, Texas,4035 N Loop 1604 W Ste 105.,78257,, Bar,Brewery,,, Eatery
333,Fresh by Brookshire's,Tyler, Texas,6991 Old Jacksonville Hwy,75703,,,,Store,,
334,Friends & Allies Brewing,Austin, Texas,979 Springdale Rd,78702,, Bar,Brewery,,,
335,Friesenhaus,New Braunfels, Texas,148 S. Castell Ave,78130,,Bar,,,, Eatery
336,Fuzzy's Taco Shop,Carrollton, Texas,4112 N. Josey Ln,75007,,Bar,,,, Eatery
337,Fuzzy's Taco Shop,Burleson, Texas,125 E Renfro St,76028,,,,,,Eatery
338,Fuzzy's Taco Shop,Fort Worth, Texas,2719 Race St,76111,,,,,,Eatery
339,Gabriel's Superstore,San Antonio, Texas,1309 N Loop 1604 W Ste 109,78258,,,,Store, Homebrew Store,
340,Gabriella's Italian Grill And Pizzeria,South Padre Island, Texas,700 Padre Blvd,78597,,Bar,,,,
341,Gabriels Wine And Spirits Outlet Store 58,San Marcos, Texas,4200 South IH-35,78666,,,,Store,,
342,Galactic Coast Brewing,Dickinson, Texas,1675 Dickinson Ave Ste C,77539,,Brewery,,,,
343,Galveston Bay Beer Company,Dickinson, Texas,12900 FM 3436 Rd,77539,, Bar,Brewery,,,
344,Galveston Island Brewing Company,Galveston, Texas,8423 Stewart Rd,77554,, Bar,Brewery,,,
345,George's,Waco, Texas,1925 Speight Ave,76706,,Bar,,,, Eatery
346,GermanDeli European Food Store,Colleyville, Texas,5100 Highway 121,76034,,,,Store,,
347,Gezellig,Dallas, Texas,2010-C Greenville Ave,75206,Lower Greenville,Bar,,,, Eatery
348,Goliad Brewing Company,Goliad, Texas,252 Metting RdGoliad,77963,,,Brewery,,,
349,Good Dog Houston,Houston, Texas,903 Studewood St,77008,,Bar,,,, Eatery
350,Good Libations Brewing,Austin, Texas,PO Box 9391,78766,,,Brewery,,,
351,Goodfriend Beer Garden & Burger House,Dallas, Texas,1154 Peavy Rd,75218,Dallas,Bar,,,, Eatery
352,Goodfriend Package,Dallas, Texas,1155 Peavy Rd,75218,Dallas,,, Store,,Eatery
353,Goody Goody,Dallas, Texas,7124 Greenville Ave,75231,Lake Highlands,,,Store,,
354,Goody Goody,Dallas, Texas,10301 Harry Hines Blvd,75220,Dallas,,,Store,,
355,Goody Goody,Dallas, Texas,3316 Oaklawn Ave,75219,Victory Park,,,Store,,
356,Goody Goody,Fort Worth, Texas,6393 Camp Bowie Blvd,76116,,,,Store,,
357,Goody Goody Liquor,Fort Worth, Texas,4740 Southwest Loop 820,76109,,,,Store,,
358,Goody Goody Liquor,Addison, Texas,14851 Inwood,75001,,,,Store,,
359,Goody Goody Liquor,The Colony, Texas,5285 Hwy 121,75056,,,,Store,,
360,Goody Goody Liquor,Highland Village, Texas,1950 FM 407,75077,,,,Store,,
361,Goody Goody Liquor,Little Elm, Texas,103 FM 423,75219,,,,Store,,
362,Goody Goody Liquor,Fort Worth, Texas,4740 SW Loop 820,76109,,,,Store,,
363,Gordon Biersch,Plano, Texas,7401 Lone Star Dr,75024,, Bar,,,, Eatery
364,Gordon Biersch Brewery Restaurant,Dallas, Texas,8060 Park Lane,75231,Lake Highlands, Bar,,,, Eatery
365,Gordon Street Tavern,Alvin, Texas,114 N Gordon StAlvin,77511,, Bar,Brewery,,, Eatery
366,Gourdough's Public House,Austin, Texas,2700 S Lamar Blvd,78704,,Bar,,,, Eatery
367,Gourmands Neighborhood Pub,Austin, Texas,2316 Webberville Rd,78702,,Bar,,,, Eatery
368,Grain to Glass,McAllen, Texas,5921 N 23rd St,78504,,Bar,,,, Eatery
369,Grape Juice,Kerrville, Texas,623 Water St,78028,,Bar,, Store,, Eatery
370,Grapevine Beer & Wine,Grapevine, Texas,2100 W Northwest Hwy Ste 215,76051,,,,Store,,
371,Grapevine Craft Brewery,Grapevine, Texas,924 Jean St,76051,,,Brewery,,,
372,The Grapevine,Gruene, Texas,1612 Hunter Rd,78130,,,,Store,,
373,Gray Dog,El Paso, Texas,500 N Oregon St,79901,,Bar,,,,
374,Green Jay Bar And Grill,Kingsville, Texas,200 E Yoakum Ave,78363,,Bar,,,, Eatery
375,Greenery Restaurant & Market,El Paso, Texas,Sunland Park Mall,79912,,Bar,, Store,, Eatery
376,Greenhouse Craft Food,Round Rock, Texas,1400 E Old Settlers Blvd #110,78664,,Bar,,,, Eatery
377,Greenway Grocery,San Antonio, Texas,11050 S US Highway 181,78223,,,,Store,,
378,Griff's,Houston, Texas,3416 Roseland St,77006,,Bar,,,, Eatery
379,Growler Room - North,Austin, Texas,6800 Burnet Rd,78757,,,,Store,,
380,Growler Room - South,Austin, Texas,2400 E Oltorf St Ste 6A,78741,,,,Store,,
381,Growler USA,Austin, Texas,609 W 29th St,78705,,Bar,,,,
382,GS1221,San Antonio, Texas,1221 Broadway St Ste 116,78215,,Bar,,,,
383,Guadalupe Brewing Co.,New Braunfels, Texas,1580 Wald Rd Ste 1,78132,,,Brewery,,,
384,Guero's Taco Bar,Austin, Texas,1412 S Congress Ave,78704,,,,,,Eatery
385,Gulf Coast Brewing Company,Beaumont, Texas,13410 Hwy 105,77713,,,Brewery,,,
386,Guns & Oil Brewing Co.,Austin, Texas,807 E 4th St,78702,,,Brewery,,,
387,Guru Burgers & Crepes,Sugar Land, Texas,2268 Texas Dr,77479,,Bar,,,, Eatery
388,Gypsy Uncorked,Wichita Falls, Texas,3115 Kemp Blvd,76308,,Bar,,,, Eatery
389,H-E-B,College Station, Texas,1900 Texas Ave S,77840,,,,Store,,
390,H-E-B,League City, Texas,2955 Gulf Fwy S,77573,,,,Store,,
391,H-E-B  - Waco 8,Waco, Texas,1301 Wooded Acres Dr,76710,,,,Store,,
392,H-E-B (#2),McAllen, Texas,901 Trenton Rd,78504,,,,Store,,
393,H-E-B (Harlingen 02 #291),Harlingen, Texas,613 S Expressway 83,78550,,,,Store,,
394,H-E-B - Austin 3,Austin, Texas,1000 E 41st St,78751,,,,Store,,
395,H-E-B - Brownsville 05,Brownsville, Texas,2155 Paredes Line Rd,78521,,,,Store,,
396,H-E-B - San Antonio 04,San Antonio, Texas,1601 Nogalitos,78204,,,,Store,,
397,H-E-B - San Antonio 17,San Antonio, Texas,12777 W IH 10,78230,,,,Store,,
398,H-E-B - San Antonio 31,San Antonio, Texas,8503 NW Military Hwy,78231,,,,Store,,
399,H-E-B - San Felipe / Table 57,Houston, Texas,5895 San Felipe St,77057,,Bar,, Store,, Eatery
400,H-E-B Plus,Corpus Christi, Texas,1145 Waldron Rd,75418,,,,Store,,
401,H-E-B plus!,Copperas Cove, Texas,2990 E Highway 190,76522,,,,Store,,
402,H-E-B plus! - San Antonio 39,San Antonio, Texas,1150 N Loop 1604 W,78248,,,,Store,,
403,Habana Restaurant & Bar,Austin, Texas,2728 S Congress Ave,78704,, Bar,Brewery,,, Eatery
404,Habanero's Grill,San Antonio, Texas,12234 Nacogdoches Rd,78217,,,,,,Eatery
405,Hailey's Club,Denton, Texas,122 W Mulberry St,76201,,Bar,,,,
406,Halls Wine and Spirits,Colleyville, Texas,4200 Glade Rd,76034,,,,Store,,
407,Hamrick's Market,Cedar Park, Texas,401 Cypress Creek Rd,78613,,,,Store,,
408,Hank's Garage,Austin, Texas,115A San Jacinto,78701,,Bar,,,, Eatery
409,Harold\'92s Restaurant & Tap Room,Houston, Texas,350 W 19th St,77008,,Bar,,,, Eatery
410,Harvest House,Denton, Texas,331 E Hickory St,76201,,Bar,,,,
411,Harvey Washbangers,College Station, Texas,1802 Texas Ave S,77840,,Bar,,,, Eatery
412,Haymaker,Austin, Texas,2310 Manor Rd,78722,,Bar,,,, Eatery
413,Hearsay Gastro Lounge,Houston, Texas,218 Travis St,77002,,Bar,,,, Eatery
414,HEB,San Angelo, Texas,3301 Sherwood Way,76901,,,,Store,,
415,HEB #383,Port Isabel, Texas,1679 Highway 100Port Isabel,78578,,,,Store,,
416,HEB - Burleson,Burleson, Texas,165 Northwest John Jones Dr,76028,,,,Store,,
417,HEB - Midland,Midland, Texas,3325 West Wadley Ave,79707,,,,Store,,
418,HEB plus!,Waco, Texas,9100 Woodway Dr,76712,,,,Store,,
419,Heights Bier Garten,Houston, Texas,1433 N Shepherd Dr,77008,,Bar,,,, Eatery
420,Henderson Tap House,Dallas, Texas,2323 N Henderson Ave,75206,Lower Greenville,Bar,,,, Eatery
421,Hendricks Pub,Houston, Texas,3320 Kirby,77098,,Bar,,,, Eatery
422,Henry's Tavern,Plano, Texas,5741 Legacy Dr Ste 100,75024,,Bar,,,, Eatery
423,Hi Hat Public House,Austin, Texas,2121 E 6th St,78702,,Bar,,,, Eatery
424,Hi Sign Brewing,Austin, Texas,1201 Bastrop Hwy,78742,, Bar,Brewery,,,
425,Hi-Tones,San Antonio, Texas,621 E Dewey,78212,,Bar,,,,
426,HighWheel Beerworks (Dor\uc0\u263 ol Distilling+ Brewing Co.),San Antonio, Texas,1902 S Flores St,78204,, Bar,Brewery,,,
427,Hills & Dales Icehouse,San Antonio, Texas,15403 White Fawn Dr,78255,,Bar,,,,
428,Hoffbrau Steaks,Granbury, Texas,315 E. Hwy 377,76048,,Bar,,,, Eatery
429,Holiday Depot Liquor,Fort Worth, Texas,6520 Randol Mill Rd,76112,,,,Store,,
430,Holiday Wine & Liquor,McAllen, Texas,1912 N 10th St,78501,,,,Store,,
431,Holiday Wine And Liquor,Edinburg, Texas,305 West University Dr,78539,,,,Store,,
432,Holler Brewing Co.,Houston, Texas,2206 Edwards St,77007,, Bar,Brewery, Bar,,
433,Home Brew Party,San Antonio, Texas,8407 Bandera Rd Ste 103,78250,,,,,Homebrew Store,
434,Home Brew Party,San Antonio, Texas,15150 Nacogdoches Rd,78247,,,,,Homebrew Store,
435,Home Sweet Farm Market & Biergarten,Brenham, Texas,307 S Park St,77833,,Bar,,,,
436,The Homebrew Depot,Maydelle, Texas,Hwy 84 E.Maydelle,75772,,,,,Homebrew Store,
437,Homebrew Headquarters,Richardson, Texas,300 N Coit Rd Ste 134,75080,,,,,Homebrew Store,
438,HomeField Grill,Round Rock, Texas,2000 S. IH-35 Ste D-1,78681,,Bar,,,,
439,Hop & Vine,San Antonio, Texas,5619 W Loop 1604 N #109,78253,,Bar,,,, Eatery
440,Hop Scholar Ale House,Spring, Texas,610 Rayford Rd Ste 642,77386,,Bar,,,,
441,Hop Stop,Humble, Texas,802 1st St E #300,77338,,Bar,,,,
442,Hopdoddy Burger Bar - Anderson Lane,Austin, Texas,2438 W Anderson Ln Ste A6,78757,,Bar,,,, Eatery
443,Hopdoddy Burger Bar - McKinney Ave,Dallas, Texas,3227 McKinney Ave Ste 102,75204,Uptown,Bar,,,, Eatery
444,Hopdoddy Burger Bar - Preston Center,Dallas, Texas,6030 Luther Ln Ste 100,75225,University Park,Bar,,,, Eatery
445,Hopdoddy Burger Bar - SoCo,Austin, Texas,1400 S Congress Ave,78704,,Bar,,,, Eatery
446,Hope and Anchor,El Paso, Texas,4012 N Mesa St,79902,,Bar,,,, Eatery
447,Hopfields,Austin, Texas,3110 Guadalupe St Ste 400,78705,,Bar,,,, Eatery
448,HopFusion Ale Works,Fort Worth, Texas,200 E Broadway Ave,76104,,,Brewery,,,
449,Hops and Grain Brewery,Austin, Texas,507 Calles St Ste 101,78702,, Bar,Brewery,,,
450,Hops Meet Barley,Houston, Texas,2245 W Alabama St,77098,,Bar,,,, Eatery
451,Houlihan's - Blanco,San Antonio, Texas,938 N Loop 1604 W,78232,,Bar,,,, Eatery
452,Howdy Doody,Denton, Texas,1625 Scripture St,76201,,,,Store,,
453,Hubcap Grill - Houston Heights,Houston, Texas,1133 W 19th St,77008,,Bar,,,, Eatery
454,Huff Brewing Co.,Bellville, Texas,9805 Koehn Rd,77418,, Bar,Brewery,,,
455,Hughie's,Houston, Texas,1802 W 18th St,77008,,Bar,,,, Eatery
456,Hullabaloo Diner,College Station, Texas,15045 FM 2154 Rd,77845,, Bar,Brewery,,, Eatery
457,Humperdinks Restaurant & Brew Pub,Arlington, Texas,700 Six Flags Dr,76011,, Bar,Brewery,,, Eatery
458,Humperdinks Restaurant and Sports Bar,Addison, Texas,3820 Belt Line Rd,75234,, Bar,Brewery,,, Eatery
459,Humperdinks Restaurant and Sports Bar,Dallas, Texas,2208 W Northwest Hwy,75220,Dallas, Bar,Brewery,,, Eatery
460,Humperdinks Texas LLC,Dallas, Texas,6050 Greenville Ave,75206,Lower Greenville,,Brewery,,, Eatery
461,Hunky Dory,Houston, Texas,1801 N Shepherd Dr,77008,,Bar,,,, Eatery
462,Husky's - Copperfield,Houston, Texas,16010 West Rd,77095,,,,,,Eatery
463,Hyde Park Market,Austin, Texas,4429 Duval St,78751,,,,Store,,
464,HEB  ,Lakeway, Texas,2000 Ranch Rd 620 S,78734,,Bar,, Store,, Eatery
465,I Don't Know Sports Bar and Grill,Amarillo, Texas,1301 SW 6th Ave,79101,,Bar,,,, Eatery
466,Idle Vine Brewing Co,Pflugerville, Texas,16920 Joe Barbee Dr Bldg 1,78667,, Bar,Brewery,,,
467,Independence Brewing Co.,Austin, Texas,3913 Todd Ln Ste 607,78744,, Bar,Brewery,,,
468,Infamous Brewing Company,Austin, Texas,4601 Weletka Dr Ste 200,78734,, Bar,Brewery,,,
469,Intrinsic Brewing,Garland, Texas,509 W State St,75040,, Bar,Brewery,,, Eatery
470,Irish Rover Pub & Restaurant,Frisco, Texas,8250 Gaylord Pkwy,75034,,Bar,,,, Eatery
471,Italic,Austin, Texas,123 W 6th St,78701,,Bar,,,, Eatery
472,J Henry's Draught House + Kitchen,Houston, Texas,1105 Clear Lake City Blvd,77062,,Bar,,,, Eatery
473,Jack Mac's Swill & Grill,Dallas, Texas,19009 Preston Rd Ste 209,75252,North Dallas,Bar,,,, Eatery
474,JAX Neighborhood Cafe,Austin, Texas,2828 Rio Grande,78705,,Bar,,,, Eatery
475,Jester King Brewery,Austin, Texas,13005 Fitzhugh Rd Bld. B,78736,, Bar,Brewery,,,
476,Joe Blows,Houston, Texas,14110 Stuebner,77040,,,,Store,,
477,Joe Vinny & Bronson's Bohemian Cafe,El Paso, Texas,824 N Piedras St,79903,,Bar,,,,
478,Johnny McElroy's Irish Pub,Houston, Texas,1223 Waugh Dr,77019,,Bar,,,, Eatery
479,Johnny's Gold Brick,Houston, Texas,2518 Yale St,77008,,Bar,,,,
480,JP Hops House,Houston, Texas,2317 Highway 6 S,77077,,Bar,,,,
481,Judy's Liquor,Fredericksburg, Texas,411 S Washington St,78624,,,,Store,,
482,Jugs,Houston, Texas,3109 S Shepherd Dr,77098,,,,Store,,
483,Junior's Beer And Wine,Austin, Texas,705 West 29th St,78705,,,,Store,,
484,Jupiter Pizza & Waffle Co.,Sugar Land, Texas,16135 City Walk,77479,,Bar,,,, Eatery
485,K & P Liquor,Denison, Texas,5026 S Texoma Prkwy,75020,,,,Store,,
486,Kahl Brewing Co.,Abilene, Texas,757 S Treadaway Blvd,79602,,,Brewery,,,
487,Kamala Brewing / Whip In,Austin, Texas,1950 Ste Interstate 35,78704,, Bar,, Store,, Eatery
488,Karbach Brewing Co.,Houston, Texas,2032 Karbach St,77092,, Bar,Brewery,,, Eatery
489,Keg & Barrell,Duncanville, Texas,1538 South Clark Rd,75137,,,,Store,,
490,The Keg Steakhouse,Fort Worth, Texas,5760 Southwest Loop 820,76132,,Bar,,,, Eatery
491,Kegs & Barrels,Plano, Texas,601 W Parker Rd,75023,,,,Store,,
492,Kegs & Barrels,Plano, Texas,1905 W 15th St,75075,,,,Store,,
493,Kegs & Corks,Midlothian, Texas,4470 East Hwy 287,76065,,,,Store,,
494,Kelly's at the Village,Allen, Texas,190 E Stacy Rd Ste 1204,75002,,Bar,,,, Eatery
495,Kelly's Eastside,Plano, Texas,1422 Avenue K,75074,,Bar,,,,
496,Kelvin Arms,Houston, Texas,2424 Dunstan Ste 150,77005,,Bar,,,, Eatery
497,Kempner Brick Oven,Kempner, Texas,12093 E Highwy 190,76539,,Bar,,,, Eatery
498,Kilburn's Tavern & Grill,Cypress, Texas,24110 Highway 290 Ste 500,77429,,Bar,,,, Eatery
499,Kilos #2,Cuney, Texas,Hwy 175Cuney,75759,,,,Store,,
500,Kilos Wine & Spirits,Coffee City, Texas,Highway 155 South,75763,,,,Store,,
501,Kinematic Brewing Company,Boerne, Texas,635 State Highway 46 E Ste 207,78006,, Bar,Brewery,,,
502,King Liquor,Austin, Texas,5310 Burnet Rd,78756,,,,Store,,
503,Kings Liquor,Fort Worth, Texas,2810 W Berry St,76109,,,,Store,,
504,Kings Liquor,Fort Worth, Texas,6659 Camp Bowie Blvd,76116,,,,Store,,
505,Kingwood Homebrew Supply,Kingwood, Texas,526  Dr,77339,,,,,Homebrew Store,
506,King\'92s BierHaus,Houston, Texas,2044 E T C Jester Blvd,77008,,Bar,,,, Eatery
507,KJ's Fine Wine & Spirits,Lake Dallas, Texas,304 Swisher Rd,75065,,,,Store,,
508,Knife,Dallas, Texas,5680 N Central Expy,75206,Lower Greenville,Bar,,,, Eatery
509,Knowlwood's Beer And Wine,Sherman, Texas,223 Knowlwood Rd,75092,,,,Store,,
510,Kocks Liquor Beer & Wine,Wichita Falls, Texas,4505 Kemp Blvd,76308,,,,Store,,
511,Kroger,Houston, Texas,1035 N Shepherd Dr,77008,,,,Store,,
512,Kroger,Houston, Texas,5150 Buffalo Speedway,77005,,,,Store,,
513,Kroger,Houston, Texas,1352 W 43rd St,77018,,,,Store,,
514,Kwik Serv (Exxon),Conroe, Texas,27328 Woodson Rd,77385,,,,Store,,
515,La Grange,Houston, Texas,2517 Ralph St,77006,,Bar,,,, Eatery
516,Ladybird's,Houston, Texas,5519 Allen St,77007,,Bar,,,,
517,Lake House Bar & Grill,Dallas, Texas,7510 E Northwest Hwy,75238,Northeast Dallas,Bar,,,, Eatery
518,Lakewood Brewing Company,Garland, Texas,2302 Executive Dr,75041,, Bar,Brewery,,,
519,Lakewood Growler,Dallas, Texas,6448 E Mockingbird Ln,75214,Lakewood,Bar,, Store,,
520,LaSalle Food Mart,Waco, Texas,1400 LaSalle Ave,76706,,,,Store,,
521,Last Stand Brewing Company,Austin, Texas,12345 Pauls Valley Rd Ste I,78737,, Bar,Brewery,,,
522,Lavaca Street Bar,Austin, Texas,405 Lavaca St,78701,,Bar,,,, Eatery
523,Lazarus Brewing Company,Austin, Texas,1902 E 6th St,78702,, Bar,Brewery,,, Eatery
524,Lazy Beach Brewing,Corpus Christi, Texas,7522 Bichon Ste 100,78413,,,Brewery,,,
525,Le Chat Noir Eatery,Castroville, Texas,1403 Angelo St,78009,,Bar,,,, Eatery
526,Leander Beer Market,Leander, Texas,106 W Willis St,78641,,Bar,,,, Eatery
527,Lefty's Draft House,San Antonio, Texas,15179 Judson Rd Ste 101,78247,,Bar,,,,
528,Legacy Liquors,The Colony, Texas,5749 SH 121,75056,,,,Store,,
529,Legal Draft Beer Company,Arlington, Texas,500 E Division St,76011,, Bar,Brewery,,,
530,Leonard's,Lubbock, Texas,9th & Ave X,79401,,,,Store,,
531,Libations,Bryan, Texas,725 E. Villa Maria Ste 700,77802,,,,Store,,
532,Liberty Station,Houston, Texas,2101 Washington Ave,77007,,Bar,,,,
533,Liberty Tavern,Austin, Texas,500 E 4th St,78701,,Bar,,,, Eatery
534,Liquid Town #9,Corpus Christi, Texas,1109 Airline Rd,78412,,,,Store, Homebrew Store,
535,Liquid Town (Store #8),Corpus Christi, Texas,4141 S Alameda St,78411,,,,Store,,
536,Liquor Mart,Nacogdoches, Texas,1501 North St,75961,,,,Store,,
537,Little Elm Crafthouse,Little Elm, Texas,850 W Eldorado Pkwy Ste 700,75068,,Bar,,,,
538,Little Gretel,Boerne, Texas,518 River Rd,78006,,Bar,,,, Eatery
539,Little J's Bar,Houston, Texas,5306 Washington Ave,77007,,Bar,,,, Eatery
540,Little Red Wasp,Fort Worth, Texas,808 Main St,76102,,Bar,,,, Eatery
541,Little Woodrow's,Houston, Texas,2306 Brazos St,77006,,Bar,,,, Eatery
542,Little Woodrow's,Houston, Texas,5611 Morningside Dr,77005,,Bar,,,, Eatery
543,Little Woodrow's - EADO,Houston, Texas,2019 Walker St,77003,,Bar,,,,
544,Little Woodrow's - Parmer Lane,Austin, Texas,6301 Parmer Ln,78729,,Bar,,,,
545,Little Woodrow's - Southpark,Austin, Texas,9300 S Interstate 35 Ste A100,78748,,Bar,,,,
546,Little Woodrow's - The Heights,Houston, Texas,2631 White Oak Dr,77009,,Bar,,,,
547,Little Woodrow's - West Sixth,Austin, Texas,520 W 6th St,78701,,Bar,,,,
548,Live Oak Brewing Company,Del Valle, Texas,1615 Crozier Ln,78617,, Bar,Brewery,,,
549,Live Oak Market,Austin, Texas,4410 Manchaca Rd,78745,,,,Store,,
550,Local Boys Liquor,Wichita Falls, Texas,2731 Southwest Pkwy Ste 3,76308,,,,Store,,
551,Local Pour,Houston, Texas,1952 W Gray St,77019,,Bar,,,, Eatery
552,Local Pour - The Woodlands,The Woodlands, Texas,1900 Hughes Landing Blvd #350,77381,,Bar,,,, Eatery
553,Lochrann's Irish Pub & Eatery,Frisco, Texas,6195 Main St,75034,,Bar,,,,
554,Londoner,Addison, Texas,14930 Midway Rd,75001,,Bar,,,, Eatery
555,Lone Star Beverages,Carrollton, Texas,3065 N Josey Ln Ste 62,75007,,,,Store,,
556,Lone Star Liquor,Huntsville, Texas,975 Highway 190 E,77340,,,,Store,,
557,Lone Star Taps & Caps,Fort Worth, Texas,6115 Camp Bowie Blvd #114,76116,,Bar,, Store,,
558,Lone Star Taps & Caps,Lewisville, Texas,4740 State Highway 121 Ste 500,75056,,Bar,, Store,,
559,Lone Star Taps And Caps,Denton, Texas,505 W Hickory St,76201,,Bar,,,,
560,Long Wooden Spoon (LWS) Brewing,Amarillo, Texas,4098 Business Park Dr,79110,, Bar,Brewery,,,
561,Longhorn Liquor,Lumberton, Texas,467 N Lhs DrLumberton,77657,,,,Store,,
562,Lorelei Brewing Company,Corpus Christi, Texas,520 NAS Dr,78418,, Bar,Brewery,,,
563,Lowbrow,Houston, Texas,1601 W Main St,77006,,Bar,,,, Eatery
564,LUCK (Local Urban Craft Kitchen),Dallas, Texas,3011 Gulden Ln Ste 112,75212,Trinity Groves,Bar,,,, Eatery
565,Lucky Lou's,Denton, Texas,1207 W Hickory St,76201,,Bar,,,,
566,Lucky's Pub,Cypress, Texas,27126 NW Freeway,77433,,Bar,,,, Eatery
567,Luke's Icehouse,Houston, Texas,903 Durham Dr,77056,,Bar,,,, Eatery
568,Maacs Grill,Irving, Texas,8150 N MacArthur Blvd ,75063,,Bar,,,, Eatery
569,Mad Pecker Brewing Co.,San Antonio, Texas,6025 Tezel Rd #122,78250,, Bar,Brewery,,, Eatery
570,Majestic Fine Wines & Spirits,Highland Village, Texas,2140 Justin Rd,75077,,,,Store,,
571,Majestic Fine Wines & Spirits,Hebron, Texas,2401 Parker Rd,75010,,,,Store,,
572,Majestic Liquor,Azle, Texas,503 Northwest Pkwy,76020,,,,Store,,
573,Majestic Liquors,Fort Worth, Texas,1004 NE Loop 820,76106,,,,Store,,
574,Majestic Liquors,Granbury, Texas,1150 Hwy 377 East,76048,,,,Store,,
575,Majestic Liquors,Fort Worth, Texas,1200 Eastchase Pkwy,76120,,,,Store,,
576,Malai Kitchen,Dallas, Texas,3699 McKinney Ave #319,75204,Uptown, Bar,Brewery,,, Eatery
577,Market Street,Colleyville, Texas,5605 Colleyville Blvd,76034,,,,Store,,
578,Market Street,Amarillo, Texas,2530 S Georgia St,79109,,,,Store,,
579,Market Street,Lubbock, Texas,3405 50th St,79413,,,,Store,,
580,Market Street,Plano, Texas,1929 Preston Rd,75093,,,,Store,,
581,Market Street,Allen, Texas,985 West Bethany Dr,75013,,,,Store,,
582,Market Street,Frisco, Texas,11999 W Eldorado Pkwy,75034,,,,Store,,
583,Market Street,McKinney, Texas,6100 Eldorado Pkwy,75070,,,,Store,,
584,Market Street #553,Lubbock, Texas,4425 19th St,79407,,,,Store,,
585,Martin House Brewing Company,Fort Worth, Texas,220 S Sylvania Ave Ste 209,76111,, Bar,Brewery,,,
586,McGonigel's Mucky Duck,Houston, Texas,2425 Norfolk St,77098,,Bar,,,, Eatery
587,Mean Eyed Cat,Austin, Texas,1621 W 5th St,78703,,Bar,,,, Eatery
588,Meddlesome Moth,Dallas, Texas,1621 Oak Lawn Ave,75207,Design District,Bar,,,, Eatery
589,Mellow Mushroom,Arlington, Texas,200 N Center St,76011,,Bar,,,, Eatery
590,Mellow Mushroom,Fort Worth, Texas,3455 Bluebonnet Circle,76109,,Bar,,,, Eatery
591,Mellow Mushroom,Houston, Texas,1919 N Shepherd Dr,77008,,Bar,,,, Eatery
592,Mellow Mushroom,Denton, Texas,217 E Hickory St,76201,,Bar,,,, Eatery
593,Mellow Mushroom,Rockwall, Texas,550 I-30 Frontage Rd,75032,,Bar,,,, Eatery
594,Mellow Mushroom,Spring, Texas,16000 Steubner Airline Rd,77379,,Bar,,,, Eatery
595,Mellow Mushroom,Southlake, Texas,2820 E  Blvd,76092,,Bar,,,, Eatery
596,Metzler's Food & Beverage,Denton, Texas,1115 E University Dr,76209,,,,Store,,
597,Metzler's Food And Beverage,Denton, Texas,628 Londonderry Ln,76205,,,,Store,,
598,Michi Ramen,Austin, Texas,6519 N Lamar Blvd,78752,,Bar,,,, Eatery
599,Middleton Brewing,San Marcos, Texas,101 Oakwood Loop,78666,, Bar,Brewery,, Homebrew Store,
600,Midland Beer Garden,Midland, Texas,7112 W Highway 80,79706,, Bar,,,, Eatery
601,Midway Mart,Denton, Texas,406 W Hickory St,76201,,,,Store,,
602,Mikey's Liquor,Pampa, Texas,1222 Price Rd,79065,,,,Store,,
603,Milagro Wine & Spirits,San Angelo, Texas,1529 West Ave N,76908,,,,Store,,
604,Miller's Discount Liqour,Beaumont, Texas,5905 Phelan Blvd,77706,,,,Store,,
605,Milo's Bar,Arlington, Texas,501 E. Division St,76011,,Bar,,,,
606,Missions Untapped,San Antonio, Texas,8123 Broadway St,78209,,Bar,,,,
607,Mister Tramps,Austin, Texas,8565 Research Blvd,78758,,Bar,,,, Eatery
608,Mojo's Sports Grille,Humble, Texas,18323 W Lake  Pkwy,77346,,Bar,,,, Eatery
609,Molly's Pub - The Woodlands,The Woodlands, Texas,24905 I-45 North,77380,,Bar,,,, Eatery
610,Molly's Pub Conroe,Conroe, Texas,901 N Loop 336 W,77301,,Bar,,,, Eatery
611,Mongoose Versus Cobra,Houston, Texas,1011 McGowen St,77004,,Bar,,,, Eatery
612,Moon Tower Inn,Houston, Texas,3004 Canal St,77003,, Bar,Brewery,,, Eatery
613,Mr. C's Irish Pub,Houston, Texas,9733 Katy Freeway,77024,,Bar,, Store,,
614,Mr. G's,Plano, Texas,1453 Coit Rd,75075,,,,Store,,
615,Mucky Duck,Addison, Texas,5064  Cir,75001,,Bar,,,, Eatery
616,Muenster Brewing Company,Muenster, Texas,102 N Main Ste PO Box 382,76252,, Bar,Brewery,,,
617,Nastys,Austin, Texas,606 Maiden Ln,78705,,Bar,,,,
618,Naughty Brewing Co.,Austin, Texas,2314 Rutland Dr Ste 100,78758,,,Brewery,,,
619,Neches Brewing Company,Port Neches, Texas,1108 Port Neches Ave,77651,, Bar,Brewery,,,
620,Neighborhood Convenience Store of Austin,Austin, Texas,700 N Cuernavaca Dr,78733,,,,Store,,
621,New Amsterdam Coffeehouse & Bar,Dallas, Texas,831 Exposition Ave,75226,Deep Ellum,Bar,,,, Eatery
622,New Braunfels Brewing Company,New Braunfels, Texas,180 W Mill St,78130,, Bar,Brewery,,,
623,New Republic Brewing Company,College Station, Texas,11405 North Dowling Rd,77845,,,Brewery,,,
624,Nickel & Rye,Dallas, Texas,2523 McKinney Ave Ste A,75201,Uptown,Bar,,,, Eatery
625,Nile Star Market,Corpus Christi, Texas,1217 Nile Dr,78412,,,,Store,,
626,Nine-Band Brewing Company,Allen, Texas,9 Prestige Cir,75002,, Bar,Brewery, Bar,,
627,No Label Brewing Company,Katy, Texas,5373 First St,77493,, Bar,Brewery, Bar,,
628,Nobi Public House,Webster, Texas,241 E NASA Rd,77598,,Bar,,,, Eatery
629,Noble Rey Brewing Company,Dallas, Texas,2636 Farrington St,75207,Design District, Bar,Brewery, Bar,,
630,Nomads,Belton, Texas,2502 Lake Rd,76513,,,,Store,,
631,North by Northwest Restaurant & Brewery,Austin, Texas,10010 Capital Of TX Hwy N,78759,, Bar,Brewery,,, Eatery
632,North by Northwest Restaurant & Brewery - South,Austin, Texas,5701 W Slaughter Ln,78749,, Bar,Brewery,,, Eatery
633,Northwest Food Mart,San Antonio, Texas,2395 NW Military Hwy,78231,,,,Store,,
634,O'Bannon's Taphouse,College Station, Texas,103 Boyett St,77840,,Bar,,,,
635,O'Briens,Temple, Texas,11 East Central Ave,76501,,Bar,,,,
636,O'Neil And Sons Brewing Company,Port Lavaca, Texas,502 Half League Rd Unit A,77979,,,Brewery,,,
637,O's Spirits,Fort Worth, Texas,2705 NE 28th St Ste 100,76111,,,,Store,,
638,Oak Barrel Beer Exchange,Nassau Bay, Texas,18019 Upper Bay Dr,77058,,,,Store,,
639,Oak Highlands Brewery,Dallas, Texas,10484 Brockwood Rd,75238,Northeast Dallas, Bar,Brewery, Bar,,
640,Oak Hill Liquor,Austin, Texas,6036 Highway 290 West,78735,,,,Store,,
641,Oak St Drafthouse,Denton, Texas,308 E Oak St,76201,,Bar,,,,
642,Oasis Texas Brewing Company,Austin, Texas,6550 Comanche Trail,78732,, Bar,Brewery,,,
643,Oasthouse Gastropub,Austin, Texas,8300 N FM 620Bldg E,78726,,Bar,,,, Eatery
644,Oddwood Ales,Austin, Texas,2314 Rutland Dr Ste 100,78758,,,Brewery,,,
645,Ode Brewing,El Paso, Texas,3233 N Mesa St Ste 301,79902,, Bar,Brewery,,, Eatery
646,OKRA - Charity Bar,Houston, Texas,942 Congress Ave,77002,,Bar,,,,
647,Old Chicago,Killeen, Texas,2901 Central Texas Expressway,76542,,Bar,,,, Eatery
648,Old Chicago,Fort Worth, Texas,8933 N Fwy Service Rd E,76177,,Bar,,,, Eatery
649,Old Chicago Pizza & Taproom,Katy, Texas,24515  Fwy Ste 100,77494,,Bar,,,, Eatery
650,Old Omen Brewery,Tyler, Texas,2625 University Blvd,75701,,,Brewery,,,
651,Old School Pizza & Suds,Arlington, Texas,603 W Abram St,76010,,Bar,,,, Eatery
652,On Rotation,Dallas, Texas,7328 Gaston Ave Ste 110,75214,Lakewood, Bar,Brewery,,,
653,Onion Creek,Houston, Texas,3106 White Oak Dr,77007,,Bar,,,, Eatery
654,Opal Divine's Marina,Austin, Texas,12709 N. Mopac,78727,,Bar,,,, Eatery
655,Orf Brewing,Austin, Texas,4700 Burleson Rd Ste F,78744,, Bar,Brewery,,,
656,Oskar Blues Brewery,Austin, Texas,10420 Metric Blvd,78758,, Bar,Brewery,,,
657,Paddy Red's Irish Pub,Fort Worth, Texas,903 Throckmorton St,76102,,Bar,,,,
658,Padre Island Brewing Company,South Padre Island, Texas,3400 Padre Blvd,78597,, Bar,Brewery,,, Eatery
659,Panther Island Brewing,Fort Worth, Texas,501 N Main St,76164,, Bar,Brewery,,,
660,Pappas Grill Steakhouse,Meadows Place, Texas,12000 Southwest Freeway,77477,,Bar,,,,
661,Pappy Slokum Brewing Co.,Abilene, Texas,409 S Treadaway Blvd,79602,,,Brewery,,,
662,Pappy's General Store,Victoria, Texas,9501-A North Navarro,77904,,,,,Homebrew Store,
663,Party Stop - 33rd & Bell,Amarillo, Texas,3312 Bell St,79106,,,,Store,,
664,Party Stop - Gem Lake,Amarillo, Texas,5747 Amarillo Blvd W Ste 500,79109,,,,Store,,
665,Party Stop - Georgia & Duniven Circle,Amarillo, Texas,2314 S Georgia St,79109,,,,Store,,
666,Paschall Bar,Denton, Texas,122 N Locust St,76201,,Bar,,,,
667,Patek's Craft Beer And Wine Bar,New Braunfels, Texas,494 N. Union Ave,78130,,Bar,,,,
668,PBK Stem & Stein,Pflugerville, Texas,111 E Main St,78660,,Bar,,,, Eatery
669,Peace Burger Dive Bar & Grill,Grapevine, Texas,1228 William D Tate Ave,76051,,Bar,,,, Eatery
670,Pecan Point Brewing Company,Texarkana, Texas,213 Main St,75501,, Bar,Brewery,,, Eatery
671,Pecan Street Brewing,Johnson City, Texas,106 E PecanJohnson City,78636,, Bar,Brewery,,, Eatery
672,Pedernales Brewing Company,Fredericksburg, Texas,97 Hitchin' Post Trail,78624,, Bar,Brewery,,,
673,Pedicab Bar And Grille,San Antonio, Texas,415 E Cevallos,78204,,Bar,,,, Eatery
674,Pesca On The River,San Antonio, Texas,212 W Crockett,78205,,Bar,,,, Eatery
675,Peticolas Brewing Company,Dallas, Texas,2026 Farrington St,75207,Design District,,Brewery,,,
676,Petrol Station Coffeehouse,Houston, Texas,985 Wakefield Dr,77018,,Bar,,,, Eatery
677,Phoenix Saloon,New Braunfels, Texas,193 W San Antonio St,78130,,Bar,,,, Eatery
678,Pinkie's,Lubbock, Texas,5901 82nd St Ste A,79424,,,,Store,,
679,Pinkie's,San Angelo, Texas,1415 Ste Bryant Blvd,76903,,,,Store,,
680,Pint and Plow Brewing Co,Kerrville, Texas,332 Clay St,78028,, Bar,Brewery,,, Eatery
681,Pinthouse Pizza - South Austin,Austin, Texas,4236 S Lamar Blvd,78704,, Bar,Brewery,,, Eatery
682,Pinthouse Pizza Craft Brewpub,Austin, Texas,4729 Burnet Rd,78756,, Bar,Brewery,,, Eatery
683,Pizza Italia,San Antonio, Texas,2950 Thousand Oaks Dr Ste 10,78247,,,,Store,,
684,PK'S Fine Wine And Spirits - Preston Hollow,Dallas, Texas,4113 Lomo Alto Dr,75220,Dallas,,,Store,,
685,Plano Beverage,Plano, Texas,901 E. Plano Pkwy Ste 109,75074,,,,Store,,
686,Platypus Brewing,Houston, Texas,1902 Washington Ave Ste E,77007,, Bar,Brewery,,, Eatery
687,Plonk Bistro,Houston, Texas,1214 W 43rd St,77018,,Bar,,,, Eatery
688,Pogo's Wine & Spirits,Dallas, Texas,5360 W Lovers Ln Ste 200,75209,University Park,,,Store,,
689,Poison Girl,Houston, Texas,1641 Westheimer Rd Ste B,77006,,Bar,,,,
690,Posse East,Austin, Texas,2900 Duval St,78705,,Bar,,,, Eatery
691,Pour House Pints & Pies,Austin, Texas,11835 Jollyville Rd,78759,,Bar,,,, Eatery
692,Premium Draught,Houston, Texas,733 Studewood St,77007,,,,Store,,
693,Presidio,Houston, Texas,911 West 11th St,77008,,Bar,,,, Eatery
694,Press Box Grill,Dallas, Texas,1680 Elm St,75201,Uptown,Bar,,,,
695,Queen's Liquor,Austin, Texas,12518 Research Blvd Ste H,78759,,,,Store,,
696,Quickie Pickie,Austin, Texas,1208 E 11th St,78702,,Bar,, Store,, Eatery
697,Rabbit Hole Brewing,Justin, Texas,608 Topeka Ave,76247,,,Brewery,,,
698,Radio Coffee & Beer,Austin, Texas,4204 Manchaca Rd,78704,,Bar,,,, Eatery
699,Rahr & Sons Brewing Company,Fort Worth, Texas,701 Galveston Ave,76104,, Bar,Brewery,,,
700,Railroad Seafood Station Brewing Company,Corpus Christi, Texas,1214 N Chaparral St,78401,, Bar,Brewery,,, Eatery
701,Railyard Houston,Houston, Texas,4200 San Felipe St,77027,,Bar,,,,
702,Rainier Brewing Co.,San Antonio, Texas,P.O. Box 792627,78279,,,Brewery,,,
703,Random Beer Garden,Boerne, Texas,11 Upper Cibolo Creek Rd,78006,,Bar,,,,
704,Ranger Creek Brewing & Distilling,San Antonio, Texas,4834 Whirlwind Dr,78217,, Bar,Brewery,,,
705,Real Ale Brewing Company,Blanco, Texas,231 San Saba Ct,78606,,,Brewery,,,
706,Rebel Toad Brewing Company,Corpus Christi, Texas,425 William St,78401,, Bar,Brewery,,,
707,Red Barn General Store,Glen Rose, Texas,526 NE Big Bend Trl,76043,,,,Store,,
708,Red Dog Right,Southlake, Texas,3311 E State Highway 114,76092,,Bar,,,, Eatery
709,Red Horn Coffee House & Brewing Co.,Cedar Park, Texas,13010 W Parmer Ln Ste 800,78613,, Bar,Brewery,,, Eatery
710,Red Lion Pub,Houston, Texas,2316 S Shepherd Dr,77019,,Bar,,,, Eatery
711,Red Robin,Hurst, Texas,1350 NE Mall Blvd,76053,,Bar,,,, Eatery
712,RED'S Porch,Austin, Texas,3508 S Lamar Blvd,78704,,Bar,,,, Eatery
713,Redbud Cafe Market & Pub,Blanco, Texas,410 4th St,78606,,Bar,,,, Eatery
714,Rentsch Brewery,Georgetown, Texas,2500 NE Inner Loop,78626,, Bar,Brewery,,,
715,Republic Diner + Sojubang,Houston, Texas,1221 W 11th St,77008,,Bar,,,, Eatery
716,Resignation Brewery,Austin, Texas,503 Neches St,78701,,,Brewery,,,
717,Retox Bar,San Antonio, Texas,1031 PatriciaSte 105,78213,,Bar,,,,
718,Revelry On Richmond,Houston, Texas,1613 Richmond Ave,77006,,Bar,,,, Eatery
719,Revolution,Bryan, Texas,211B S Main St,77803,,Bar,,,, Eatery
720,Revolver Brewing,Granbury, Texas,5600 Matlock Rd,76049,,,Brewery,,,
721,RGV Brew,McAllen, Texas,610 N Main St,78501,,,,,Homebrew Store,
722,Richardson Beer & Wine,Richardson, Texas,515 W Campbell Rd Ste 105,75080,,,,Store,,
723,Ringo's Pub,Plano, Texas,5865 Kincaid Rd,75024,,Bar,,,, Eatery
724,Ritual,Houston, Texas,602 Studewood St,77007,,Bar,,,, Eatery
725,Rock & Brews,The Colony, Texas,5351 Nebraska Furniture Mart Dr,75056,,Bar,,,, Eatery
726,Rodeo Goat,Dallas, Texas,1926 Market Center Blvd,75207,Design District,Bar,,,, Eatery
727,Rogness Brewing Company,Pflugerville, Texas,2400 Patterson Industrial Dr,78660,, Bar,Brewery,,,
728,Ron's Corner Tavern,Bedford, Texas,1833 Airport Fwy,76021,,Bar,,,, Eatery
729,Ron's Pub,Houston, Texas,1826 Fountain View Dr,77057,,Bar,,,,
730,Roosevelt's at 7,McAllen, Texas,821 N Main St,78501,,Bar,,,, Eatery
731,Root Cellar Cafe / Darkside Fermentation,San Marcos, Texas,215 North LBJ Dr,78666,, Bar,Brewery,,, Eatery
732,Rose City Draft House,Tyler, Texas,5393 S Broadway Ave,75703,,Bar,,,,
733,Rowdys Liquid Express,La Porte, Texas,8320 Spencer Highway,77571,,,,Store,,
734,Ruba Brewing,Houston, Texas,3310 Buttercup St #1,77063,,,Brewery,,,
735,Rudyard's British Pub,Houston, Texas,2010 Waugh Dr,77006,,Bar,,,, Eatery
736,Rugby House Pub,Plano, Texas,8604 Preston Rd Ste 100,75024,,Bar,,,, Eatery
737,Ruggedman Brewing,San Marcos, Texas,7600 S Old Bastrop Hwy,78666,, Bar,Brewery,,,
738,Ruli's International Kitchen,El Paso, Texas,4176 N Mesa St,79902,,Bar,,,, Eatery
739,Running Walker Brewery,Richmond, Texas,3421 FM 359 Rd,77406,,,Brewery,,,
740,S&K Beverages,Plano, Texas,101 W Spring Creek Pkwy Ste 741,75023,,,,Store,,
741,Sahadi,McAllen, Texas,709 N. 10th,78501,,,,Store,,
742,Saint Arnold Brewing Company,Houston, Texas,2000 Lyons Ave,77020,, Bar,Brewery,,, Eatery
743,Saint Ides Brewing Company,San Antonio, Texas,P. O. Box 1661,78296,,,Brewery,,,
744,Saloon Door Brewing,Webster, Texas,105 Magellan Cir Ste A,77598,,Bar,Brewery,,,
745,Salt & Time,Austin, Texas,1912 E 7th St,78702,,Bar, Store,,, Eatery
746,San Gabriel River Brewing Company,Liberty Hill, Texas,500 Chaparral Dr,78642,, Bar,Brewery,,,
747,Save The World Brewing Company,Marble Falls, Texas,1510 Resource Pkwy,78654,, Bar,Brewery,,,
748,Scardello Artisan Cheese,Dallas, Texas,3511 Oak Lawn Ave,75219,Victory Park,Bar,, Store,,Eatery
749,Scholz Garten,Austin, Texas,1607 San Jacinto Blvd,78701,,Bar,,,, Eatery
750,School House Pub,Austin, Texas,2207 Manor Rd,78722,,Bar,,,, Eatery
751,Scott's Liquor,Jewett, Texas,1316 N. Main StJewett,75846,,Bar,,Store,,
752,Sean Patrick's,San Marcos, Texas,202 E San Antonio St,78666,, Bar,Brewery,,, Eatery
753,Seasons Gourmet Food & Grocer,Galveston, Texas,2701 Broadway Ave,77550,,Bar,, Store,, Eatery
754,Seazar's Fine Wine & Spirits,San Antonio, Texas,6422 N  Ave,78209,,,,Store,,
755,Seguin Brewing Co.,Seguin, Texas,111 W Gonzales St,78155,, Bar,Brewery,,,
756,Shamrock Tavern,Fort Worth, Texas,2708 W 7th St,76107,,Bar,,,,
757,Shannon Brewing Company,Keller, Texas,818 N Main St,76248,, Bar,Brewery,,,
758,Sharyland Wine & Spirits,Mission, Texas,4001 S Shary Rd Ste 500,78572,,Bar,, Store,,
759,Shay McElroy's Irish Pub,Houston, Texas,909 Texas St,77002,,Bar,,,,
760,Shellfish Sports Bar & Grille,Port Lavaca, Texas,2615 N US Highway 35 Byp,77979,,Bar,,,, Eatery
761,Shepherd Park Draught House,Houston, Texas,3402 N Shepherd Dr,77018,,Bar,,,, Eatery
762,Sherlock's Baker St Public House & Grill,Austin, Texas,9012 Research Blvd Ste C1,78758,,Bar,,,, Eatery
763,Sherlock's Baker St Public House & Grill,Arlington, Texas,254 Lincoln Sq,76011,,Bar,,,, Eatery
764,Sherlock's Baker St Public House & Grill,Addison, Texas,5100 Beltline Dr Ste 776,75254,,Bar,,,,
765,Sherlock's Baker St Public House & Grill,Dallas, Texas,9100 North Central Expressway,75231,Lake Highlands,Bar,,,, Eatery
766,Side Door Liquor Store,El Paso, Texas,1222 Sunland Park Dr,79922,,,,Store,,
767,Sigel's Beverages,Addison, Texas,15003 Inwood Rd,75001,,,,Store,,
768,Sigma Brewing Company,Houston, Texas,3118 Harrisburg Blvd,77003,, Bar,Brewery,,,
769,Silver Creek Beer Garden & Restaurant,Fredericksburg, Texas,310 E Main St,78624,,Bar,,,, Eatery
770,Sin City Liquors & More,San Antonio, Texas,8750 Grissom Rd,78251,,,,Store,,
771,Skallywag Suds N' Grub,Kemah, Texas,600 6th St,77565,,Bar,,,, Eatery
772,Slainte Irish Pub,Houston, Texas,509 Main St,77002,,Bar,,,, Eatery
773,Small Brewpub,Dallas, Texas,333 W Jefferson Blvd,75208,Oak Cliff, Bar,Brewery,,, Eatery
774,Smoke'n Hops,Dripping Springs, Texas,3799 E Highway 290,78620,, Bar,Brewery,,, Eatery
775,SoCo Homebrew,Austin, Texas,4930 S Congress Ave Ste 307,78745,,,,,Homebrew Store,
776,SoCo Taphouse & Brew Company,San Angelo, Texas,113 E Concho Ave Ste 210L,76903,, Bar,Brewery,,,
777,Sograte BBQ and Brew,Lubbock, Texas,8405 Ash Ave,79404,,,,,Homebrew Store,
778,Solid Rock Brewing,Spicewood, Texas,2214 Bee Creek Rd,78669,,,Brewery,,,
779,South Austin Brewery,Austin, Texas,415 E St Elmo Rd,78745,, Bar,Brewery,,,
780,South Congress Cafe,Austin, Texas,1600 S Congress Ave,78704,, Bar,,,, Eatery
781,Southerleigh Fine Food & Brewery,San Antonio, Texas,136 E Grayson St Ste 120,78215,, Bar,Brewery,,,
782,Southern Goods,Houston, Texas,623 W 19th St,77008,, Bar,,,, Eatery
783,Southern Star Brewing Company,Conroe, Texas,1207 N FM 3083 Rd E,77303,,,Brewery,,,
784,Southside Market & BBQ,Elgin, Texas,1212 Highway 290 E,78621,,Bar,,,, Eatery
785,Southwest Parkway Market,Austin, Texas,4601 Southwest Pkwy Ste 110,78735,,,,Store,,
786,Spanky's Liquor,Port Neches, Texas,1302 Magnolia Ave,77651,,,,Store,,
787,Spec's #00 - Downtown,Houston, Texas,2410 Smith St,77006,,,,Store,,
788,Spec's #01,Kingwood, Texas,1420 Kingwood Dr,77339,,,,Store,,
789,Spec's #02 - Westheimer at Kirkwood,Houston, Texas,11990 Westheimer Rd,77077,,,,Store,,
790,Spec's #03,Sugar Land, Texas,3335 Highway 6,77478,,,,Store,,
791,Spec's #06 - Bay Area Blvd,Houston, Texas,1029 Bay Area Blvd,77058,,,,Store,,
792,Spec's #08,Katy, Texas,1640 S Mason Rd,77450,,,,Store,,
793,Spec's #09 - Hwy 6 North,Houston, Texas,6765 Highway 6 N,77084,,,,Store,,
794,Spec's #10,Seabrook, Texas,3126 NASA Pkwy,77586,,,,Store,,
795,Spec's #107,Lubbock, Texas,6816 Slide Rd Ste 12,79424,,,,Store,,
796,Spec's #111 -N ew Braunfels South,New Braunfels, Texas,1671 Interstate 35 Frontage Rd Ste 302,78130,,,,Store,,
797,Spec's #12 - Memorial,Houston, Texas,14625 Memorial Dr,77079,,,,Store,,
798,Spec's #139 - Katy Mills,Katy, Texas,24417  Freeway,77494,,,,Store,,
799,Spec's #15 - Woodlands South,Spring, Texas,25044 Interstate 45,77386,,,,Store,,
800,Spec's #150,Dallas, Texas,9500 N Central Expy,75231,Lake Highlands,,,Store,,
801,Spec's #154,Fort Worth, Texas,2705 S Hulen St,76109,,,,Store,,
802,Spec's #160,Fort Worth, Texas,4700 Bryant Irvin Rd,76132,,,,Store,,
803,Spec's #161,Lowery Crossing, Texas,4100 E University Dr,75069,,,,Store,,
804,Spec's #163,The Colony, Texas,4901 SH 121,75056,,,,Store,,
805,Spec's #19,Jersey Village, Texas,17414 Northwest Fwy,77040,,,,Store,,
806,Spec's #21 - Medical Center,Houston, Texas,2314 W Holcombe Blvd,77030,,,,Store,,
807,Spec's #22,Humble, Texas,7034 FM 1960 Rd E,77346,,,,Store,,
808,Spec's #24 - Montrose Clearance Store,Houston, Texas,1011 Westheimer St,77006,,,,Store,,
809,Spec's #28 - Louetta,Spring, Texas,1614 Louetta Rd,77388,,,,Store,,
810,Spec's #31,Beaumont, Texas,5876 Eastex Fwy,77708,,,,Store,,
811,Spec's #32,Kemah, Texas,243 Marina Bay Dr,77565,,,,Store,,
812,Spec's #33 - Spec's on 1488,Conroe, Texas,3588 FM 1488 Rd,77384,,,,Store,,
813,Spec's #34 - Conroe South,Conroe, Texas,1304 W Davis St Ste F,77304,,,,Store,,
814,Spec's #35,Galveston, Texas,2711 61st St,77551,,,,Store,,
815,Spec's #37,College Station, Texas,1729 Texas Ave S,77840,,,,Store,,
816,Spec's #48 - FM 529 at Barker Cypress,Houston, Texas,17996 FM 529 Rd,77095,,,,Store,,
817,Spec's #51 - Fry Road North,Katy, Texas,3811 N Fry Rd,77449,,,,Store,,
818,Spec's #52,Webster, Texas,3100 FM 528 Rd,77598,,,,Store,,
819,Spec's #53,Spring Valley, Texas,8416 Katy Fwy,77024,,,,Store,,
820,Spec's #55,Cypress, Texas,14315  Rosehill Rd,77429,,,,Store,,
821,Spec's #60 - Highland Park,Austin, Texas,5775 Airport Blvd Ste 100,78752,,,,Store,,
822,Spec's #61 - Brodie Lane,Austin, Texas,4970 W Highway 290,78735,,,,Store,,
823,Spec's #62 - Arbor Walk,Austin, Texas,10515 N Mo Pac Expy,78759,,,,Store,,
824,Spec's #63,Round Rock, Texas,201 University Oaks Ste 600,78665,,,,Store,,
825,Spec's #64 - Southpark Meadows,Austin, Texas,9900 S IH 35,78748,,,,Store,,
826,Spec's #66,Temple, Texas,3550 S General Bruce Dr,76504,,,,Store,,
827,Spec's #68,Corpus Christi, Texas,5625 S Padre Island Dr,78412,,,,Store,,
828,Spec's #69 - Live Oak,Selma, Texas,14623 Interstate 35 N,78154,,,,Store,,
829,Spec's #73,Waco, Texas,1434 S Valley Mills Dr,76711,,,,Store, Homebrew Store,
830,Spec's #75,Killeen, Texas,2500 E Central Texas Expy Ste C,76543,,,,Store,,
831,Spec's #94,El Paso, Texas,655 Sunland Park Dr,79912,,,,Store,,
832,Spec's Arlington (#165),Arlington, Texas,3909 S Cooper St,76015,,,,Store,,
833,Spider House,Austin, Texas,2908 Fruth St,78705,,Bar,,,,
834,Spindletap Brewery,Houston, Texas,10622 Hirsch Rd,77016,, Bar,Brewery,,,
835,Spoetzl Brewery / Shiner,Shiner, Texas,603 East Brewery St,77984,, Bar,Brewery,,,
836,Spring Market H-E-B,Spring, Texas,2121 FM 2920,77388,,,,Store,,
837,Square Burger,McKinney, Texas,115 N Kentucky St,75069,,Bar,,,, Eatery
838,St Elmo Brewing Co.,Austin, Texas,440 E St Elmo Rd  Ste G-2,78745,, Bar,Brewery,,,
839,St Pete's Dancing Marlin`,Dallas, Texas,2730 Commerce St,75226,Deep Ellum,Bar,,,, Eatery
840,Stan's Blue Note,Dallas, Texas,2908 Greenville Ave,75206,Lower Greenville,Bar,,,, Eatery
841,Stanley's Farmhouse Pizza,Austin, Texas,13187 Fitzhugh Rd,78736,,Bar,,,, Eatery
842,Star Bar,Austin, Texas,600 W 6th St,78701,,Bar,,,,
843,State & Allen Kitchen + Bar,Dallas, Texas,2400 Allen St,75204,Uptown,Bar,,,, Eatery
844,State Fare Kitchen & Bar,Houston, Texas,947 N Gessner Rd Ste B190,77024,,Bar,,,, Eatery
845,Stats Sports Bar and Grill,Houston, Texas,10850 Louetta Rd Ste 1700,77070,,Bar,,,, Eatery
846,Stella Public House,San Antonio, Texas,1414 S Alamo St,78210,,Bar,,,, Eatery
847,Stesti Brewing Co.,Lovelady, Texas,1328 FM 2915,75851,,,Brewery,,,
848,Stonedeck Pizza Pub,Dallas, Texas,2613 Elm St,75226,Deep Ellum,Bar,,,, Eatery
849,Stouthaus Coffee Pub,Austin, Texas,4715 S Lamar BlvdSte 102,78745,,Bar,,,,
850,Strange Land Brewery,West Lake Hills, Texas,Capital Of TX Highway & Bee Cave Rd,78746,,Bar,Brewery,,,
851,Strangeways,Dallas, Texas,2429 N Fitzhugh Ave,75204,Uptown,Bar,,,,
852,Suds Monkey Brewing Co,Austin, Texas,9936 Circle Dr Unit 3,78736,,Bar,Brewery,,,
853,Sun Brewing Co.,Canutillo, Texas,101 La Union Ave,79835,, Bar,Brewery,,, Eatery
854,Sun Harvest Market,Austin, Texas,4006 South Lamar,78704,,,,Store,,
855,Sunrise Mini Mart,Austin, Texas,1809 W Anderson Ln,78757,,,,Store,,
856,Super Food Conoco,Houston, Texas,12010 Bammel North  Rd,77066,,,,Store,,
857,Swift's Attic,Austin, Texas,315 Congress Ave Ste 200,78701,,Bar,,,, Eatery
858,T & P Tavern,Fort Worth, Texas,221 W Lancaster Ave #1000,76102,,Bar,,,,
859,T-Bone Tom's Steakhouse,Kemah, Texas,707 Highway 146,77565,,Bar,,,, Eatery
860,Tailgators Pub & Grill - Magnolia,Magnolia, Texas,33418 Egypt Ln  Ste L,77354,,Bar,,,, Eatery
861,Tapology,League City, Texas,2660 Marina Bay Dr,77573,,Bar,,,, Eatery
862,Taps House of Beer,Houston, Texas,5120 Washington Ave,77007,,Bar,,,, Eatery
863,Target,San Antonio, Texas,18255 Blanco Rd,78258,,,,Store,,
864,Taylor County Taphouse,Abilene, Texas,4002 Catclaw Dr,79606,,Bar,,,, Eatery
865,Tejas Liquor #2,Austin, Texas,2113 Wells Branch Pkwy Ste 700,78728,,,,Store,,
866,Ten Bells Tavern,Dallas, Texas,232 W 7th St,75208,Oak Cliff,Bar,,,, Eatery
867,Tex Max Beer And Wine,Fort Worth, Texas,3349 Western Center Blvd #151,76137,,,,Store,,
868,Texas Ale Project,Dallas, Texas,1001 N Riverfront Blvd,75207,Design District, Bar,Brewery,,,
869,Texas Beer Co.,Taylor, Texas,201 N Main StTaylor,76574,, Bar,Brewery,,,
870,Texas Beer Garden,Magnolia, Texas,7214 FM. 1488  #101,77354,,Bar,,,, Eatery
871,Texas Beer Refinery,Dickinson, Texas,1825 Dickinson Ave,77539,, Bar,Brewery,,,
872,Texas Beer Refinery,Dickinson, Texas,1825 Dickinson Ave,77539,, Bar,Brewery,,,
873,Texas Brewing Inc.,Haltom City, Texas,5200 Airport Fwy Ste B,76117,,,,,Homebrew Store,
874,Texas Leaguer Brewing Compnay,Missouri City, Texas,13340 S Gessner Rd,77489,, Bar,Brewery,,,
875,Texas Select Beverage Company,Carrollton, Texas,2415 Midway Rd Ste 115,75006,,,Brewery,,,
876,Texas Wine Cellars,Fredericksburg, Texas,217 1/2 E. Main St,78624,,,,Store,,
877,Texian Brewing Company,Richmond, Texas,1125 FM 359 Rd,77406,,,Brewery,,,
878,Texoma Spirits,Denison, Texas,3116 Regency Ln,75020,,,,Store,,
879,The Abbey Underground,Denton, Texas,100 W Walnut St,76201,,Bar,,,,
880,The Alcove,Dallas, Texas,2907 State St,75204,Uptown,Bar,,,,
881,The Barber Shop,Dripping Springs, Texas,207 Mercer St,78620,, Bar,Brewery,,,
882,The Barn Bar and Grill,Nacogdoches, Texas,2304 North St,75965,,Bar,,,, Eatery
883,The Bearded Lady,Fort Worth, Texas,1229 7th Ave,76104,,Bar,,,, Eatery
884,The Bearded Monk,Denton, Texas,122 E McKinney St,76201,,Bar,, Store,, Eatery
885,The Beer Plant,Austin, Texas,3110 Windsor Rd,78703,,Bar,,,, Eatery
886,The Black Labrador,Houston, Texas,4100 Montrose Blvd Ste 8,77006,,Bar,,,, Eatery
887,The Black Orchid Lounge,El Paso, Texas,6127 N Mesa St Ste A,79912,,Bar,,,, Eatery
888,The Blackheart,Austin, Texas,86 Rainey St,78701,,Bar,,,,
889,The Branch,Houston, Texas,7710 Long Point Rd,77055,,Bar,,,, Eatery
890,The Brass Tap,Allen, Texas,2540 N Watters Rd Ste 180,75013,,Bar,,,, Eatery
891,The Brass Tap,Round Rock, Texas,204 E Main St,78664,,Bar,,,, Eatery
892,The Brass Tap,Fort Worth, Texas,901 Houston St Ste 102,76102,,Bar,,,,
893,The Brass Tap,San Antonio, Texas,17619 La Cantera Pkwy  Ste 2-208,78257,,Bar,,,, Eatery
894,The Brew Exchange,Austin, Texas,706 W 6th St,78701,,Bar,,,,
895,The Brewer's Grill,San Antonio, Texas,22250 Bulverde Rd Ste 106,78261,,Bar,,,, Eatery
896,The Brewery,Port Aransas, Texas,429 N Alister St,78373,, Bar,Brewery,,, Eatery
897,The Brewery Tap,Houston, Texas,717 Franklin St,77002,,Bar,,,,
898,The Buckhorn Saloon & Museum,San Antonio, Texas,318 E Houston St,78205,,Bar,,,, Eatery
899,The Bull & Bear Tavern & Eatery,Houston, Texas,11980 Westheimer  Ste A,77077,,Bar,,,, Eatery
900,The Burger Joint,Houston, Texas,2703 Montrose Blvd,77006,,Bar,,,, Eatery
901,The Cellar,Odessa, Texas,5102A E.University,79762,,Bar,,Store,,
902,The Chicago House,Austin, Texas,607 Trinity St,78701,,Bar,,,,
903,The Collective Brewing Project,Fort Worth, Texas,112 Saint Louis Ave,76104,, Bar,Brewery,,,
904,The Common Table,Dallas, Texas,2917 Fairmount St,75201,Uptown,Bar,,,, Eatery
905,The Corner Pub,Conroe, Texas,302 N Main St,77301,,Bar,,,, Eatery
906,The Cove,San Antonio, Texas,606 W Cypress St,78212,,Bar,,,, Eatery
907,The Crafthouse Gastropub,Lubbock, Texas,3131 34th St,79410,,Bar,,,, Eatery
908,The Dig Pub,Cedar Park, Texas,401 Cypress Creek Rd,78613,,Bar,,,, Eatery
909,The Dodging Duck Brewhaus,Boerne, Texas,402 River Rd,78006,, Bar,,,, Eatery
910,The Dog & Duck Pub,Austin, Texas,406 W 17th St,78701,,Bar,,,, Eatery
911,The Driskill Bar,Austin, Texas,604 Brazos St,78701,,Bar,,,, Eatery
912,The Dubliner,Dallas, Texas,2818 Greenville Ave,75206,Lower Greenville,Bar,,,, Eatery
913,The Esquire Tavern,San Antonio, Texas,155 E Commerce St,78205,,Bar,,,, Eatery
914,The Fat Grass,Bay City, Texas,1717 7th StBay City,77414,,Bar,,,, Eatery
915,The Faust Hotel (Faust Brewing Company),New Braunfels, Texas,240 South Seguin Ave,78130,, Eatery,Brewery,,, Eatery
916,The Fillmore Pub,Plano, Texas,1004 E 15th St,75074,,Bar,,,, Eatery
917,The Flying Saucer Draught Emporium,Sugar Land, Texas,15929 City Walk,77479,,Bar,,,, Eatery
918,The Flying Saucer Draught Emporium,Garland, Texas,4821 Bass Pro Dr,75043,,Bar,,,, Eatery
919,The Flying Saucer Draught Emporium,San Antonio, Texas,11255 Huebner Rd Ste 212,78230,,Bar,,,, Eatery
920,The Flying Saucer Draught Emporium,Austin, Texas,815 W 47th St,78751,,Bar,,,, Eatery
921,The Flying Saucer Draught Emporium,Fort Worth, Texas,111 E 3rd St,76102,,Bar,,,, Eatery
922,The Flying Saucer Draught Emporium,Houston, Texas,705 Main St,77002,,Bar,,,, Eatery
923,The Flying Saucer Draught Emporium,Dallas, Texas,14999 Montfort Dr,75254,Addison,Bar,,,, Eatery
924,The Friendly Spot,San Antonio, Texas,943 S Alamo St,78205,,Bar,,,, Eatery
925,The Ginger Man,Plano, Texas,7205 Bishop Rd  Ste E1,75024,,Bar,,,, Eatery
926,The Ginger Man,Dallas, Texas,2718 Boll St,75204,Uptown,Bar,,,, Eatery
927,The Ginger Man,Fort Worth, Texas,3716 Camp Bowie Blvd,76107,,Bar,,,, Eatery
928,The Ginger Man,Southlake, Texas,1512 E  Blvd,76092,,Bar,,,,
929,The Ginger Man,Dallas, Texas,6341 La Vista Dr,75214,Lakewood,Bar,,,, Eatery
930,The Ginger Man,Austin, Texas,301 Lavaca St,78701,,Bar,,,, Eatery
931,The Ginger Man,Houston, Texas,5607 Morningside Dr,77005,,Bar,,,, Eatery
932,The Goose's Acre Bistro & Irish Pub,The Woodlands, Texas,21 Waterway Ave Ste 140,77380,,Bar,,,, Eatery
933,The Granary,San Antonio, Texas,602 Avenue A,78215,, Bar,Brewery,,, Eatery
934,The Growler Spot,Fulshear, Texas,29615 FM 1093 Rd Ste 4,77441,, Bar,, Store,, Eatery
935,The Growling,San Marcos, Texas,700 North LBJ Dr  Ste 111,78666,,Bar,, Store,,
936,The Hangar Tavern,San Antonio, Texas,14532 Brook Hollow Blvd,78232,,Bar,,,, Eatery
937,The Hay Merchant,Houston, Texas,1100 Westheimer Rd,77006,,Bar,,,, Eatery
938,The Hobbit Cafe,Houston, Texas,2243 Richmond Ave,77098,,Bar,,,, Eatery
939,The Holy Grail Pub,Plano, Texas,8240 Preston Rd Ste 150,75024,,Bar,,,, Eatery
940,The Hoppy Monk,El Paso, Texas,4141 N Mesa St,79902,,Bar,,,, Eatery
941,The Hoppy Monk,San Antonio, Texas,1010 N Loop 1604 E,78232,,Bar,,,, Eatery
942,The Idle Rich Pub,Dallas, Texas,2614 McKinney Ave,75204,Uptown,Bar,,,, Eatery
943,The King's Head Pub,Houston, Texas,1809 Elridge Pkwy,77077,,Bar,,,, Eatery
944,The Libertine Bar,Dallas, Texas,2101 Greenville Ave,75206,Lower Greenville,Bar,,,, Eatery
945,The Lion & Rose,San Antonio, Texas,5148 Broadway St,78209,,Bar,,,, Eatery
946,The Liquor Cabinet,The Colony, Texas,6800 Windhaven Pkwy Ste 129,75056,,,,Store,,
947,The Liquor Company,El Paso, Texas,2077 N Zaragoza Rd Ste 105,79938,,,,Store,,
948,The Liquor Company,El Paso, Texas,11100 Sean Haggerty Dr Ste 206,79934,,,,Store,,
949,The Liquor Company,El Paso, Texas,1320 N Zaragoza Rd Ste 117,79936,,,,Store,,
950,The Live Oak Music Hall & Lounge,Fort Worth, Texas,1311 Lipscomb St,76104,,Bar,,,, Eatery
951,The Local Pub & Patio,Austin, Texas,2610 Guadalupe St,78705,,Bar,,,, Eatery
952,The Logon Cafe,Beaumont, Texas,3805 Calder Ave,77706,,Bar,,,, Eatery
953,The Londoner,Colleyville, Texas,5150  Blvd,76034,,Bar,,,, Eatery
954,The Lone Pint Brewery,Magnolia, Texas,507 Commerce St,77355,, Bar,Brewery,,,
955,The Lost Well,Austin, Texas,2421 Webberville Rd,78702,,Bar,,,,
956,The Luxury,San Antonio, Texas,103 E Jones Ave,78215,,Bar,,,, Eatery
957,The Manhattan Project Beer Company,Dallas, Texas,202 W 9th St,75208,Oak Cliff,Bar,Brewery,,,
958,The Meridian Room,Dallas, Texas,3611 Parry Ave,75226,Deep Ellum,Bar,,,, Eatery
959,The Old Monk,Dallas, Texas,2847 N Henderson Ave,75206,Lower Greenville,Bar,,,, Eatery
960,The Owner's Box,Dallas, Texas,555 S Lamar St,75202,Downtown,Bar,,,, Eatery
961,The Ozzie Rabbit Lodge,Fort Worth, Texas,6463 E Lancaster,76112,,Bar,,,,
962,The Park @ The Domain,Austin, Texas,11601 Domain Dr,78758,,,,,,Eatery
963,The Phoenix on Westheimer,Houston, Texas,1915 Westheimer Rd,77098,, Bar,Brewery,,,Eatery
964,The Point Park & Eats,San Antonio, Texas,24188 Boerne Stage Rd,78255,,Bar,,,,
965,The Post Package Liquor Store,Harker Heights, Texas,246 W Veterans Memorial Blvd,76548,,,,Store,,
966,The Pour House,Austin, Texas,6701 Burnet Rd,78757,,Bar,,,,
967,The Proletariat Gallery & Public House,Galveston, Texas,2221 Market St #100,77550,,Bar,,,,
968,The Pub,McKinney, Texas,204 W Virginia St,75069,,Bar,,,, Eatery
969,The Public House,Katy, Texas,22758 Westheimer Pkwy Ste 270,77450,,Bar,,,, Eatery
970,The Queen Vic Pub & Kitchen,Houston, Texas,2712 Richmond Ave,77098,,Bar,,,, Eatery
971,The Red Brick Tavern,Conroe, Texas,119 Simonton St,77301,,Bar,,,, Eatery
972,The Refuge Bar & Bistro,The Woodlands, Texas,24 Waterway Ave,77380,,Bar,,,, Eatery
973,The Republic House,Pasadena, Texas,9 Fairmont Pkwy,77505,,Bar,,,, Eatery
974,The Richmond Arms Pub,Houston, Texas,5920 Richmond Ave,77057,,Bar,,,, Eatery
975,The Saddle Club,Alpine, Texas,211 E Holland Ave,79830,,Bar,,,, Eatery
976,The Shack Burger Resort,Cypress, Texas,16602  Rosehill Rd,77429,,Bar,,,, Eatery
977,The Simpson Inn & Ale House,Seagraves, Texas,302 Main Ave,79359,,Bar,,,, Eatery
978,The Snack Bar,Austin, Texas,1224 S Congress St,78704,,Bar,,,,
979,The Social House,Dallas, Texas,2708 Routh St,75201,Uptown,Bar,,,, Eatery
980,The Tap Room,San Marcos, Texas,129 E Hopkins St Ste 120,78666,,Bar,,,, Eatery
981,The Ten Eleven,San Antonio, Texas,1011 Avenue B,78215,,Bar,,,,
982,The White Horse,Austin, Texas,500 Comal St,78702,,Bar,,,,
983,The Wine Rack,Midland, Texas,4610 N Garfield St Ste D4,79705,,,,Store,,
984,The Yellow Store,San Marcos, Texas,301 East Hopkins,78666,,,,Store,,
985,Thirsty Planet Brewing Company,Austin, Texas,11160 Circle Dr,78736,,,Brewery,,,
986,Thom's Market,Austin, Texas,1418 Barton Springs Rd,78704,,,,Store,,
987,Thousand Oaks Brewing,Cedar Park, Texas,3200 Woodall Dr,78613,, Bar,Brewery,,,
988,Tinnin Food Mart,Austin, Texas,1516 Tinnin Ford Rd,78741,,,,Store,,
989,Tolbert's Chili Parlor,Grapevine, Texas,423 S Main St,76051,,Bar,,,, Eatery
990,Tom Thumb Food & Pharmacy,Plano, Texas,5968 W Parker Rd,75093,,,,Store,,
991,Total Wine & More,Austin, Texas,5601 Brodie Ln Ste 800,78745,,,,Store,,
992,Total Wine & More,Fort Worth, Texas,5200 S Hulen St,76132,,,,Store,,
993,Total Wine & More,Dallas, Texas,9350 N Central Expy,75231,Lake Highlands,,,Store,,
994,Total Wine & More,San Antonio, Texas,17530 La Cantera Pkwy Ste 103,78257,,,,Store,,
995,Total Wine & More,Plano, Texas,8700 Preston Rd Ste 113,75024,,,,Store,,
996,Total Wine & More,Plano, Texas,721 N Central Expy Sute 200,75075,,,,Store,,
997,Total Wine & More,Lewisville, Texas,2325 S Stemmons Fwy,75067,,,,Store,,
998,Total Wine & More,Arlington, Texas,981 Interstate 20 W,76017,,,,Store,,
999,Total Wine & More,Cedar Park, Texas,11066 Pecan Park Blvd Ste 117,78613,,,,Store,,
1000,Total Wine & More,Denton, Texas,1800 South Loop 288,76205,,,,Store,,
1001,Total Wine & More,San Antonio, Texas,125 NW Loop 410 Ste 260,78216,,,,Store,,
1002,Total Wine & More,Friendswood, Texas,18740 Gulf Fwy,77546,,,,Store,,
1003,Total Wine & More,Houston, Texas,5016 San Felipe St,77056,,,,Store,,
1004,Total Wine & More,Houston, Texas,12516 Memorial Dr,77024,,,,Store,,
1005,Total Wine & More,Houston, Texas,2617 W Holcombe Blvd,77025,,,,Store,,
1006,Total Wine & More,Richmond, Texas,5472 W Grand Pkwy S,77406,,,,Store,,
1007,Town in City Brewing Co.,Houston, Texas,1125 W Cavalcade St,77009,, Bar,Brewery,,, Eatery
1008,Treaty Oak Brewing & Distilling,Dripping Springs, Texas,16604 Fitzhugh Rd,78620,, Bar,Brewery,,, Eatery
1009,Tri-City Spirits,Colleyville, Texas,7990 Precinct Line Rd Ste B,76034,,,,Store,,
1010,Trinity Hall,Dallas, Texas,5321 E Mockingbird Ln Ste 250,75206,Lower Greenville,Bar,,,, Eatery
1011,Trinity River Tap House,Fort Worth, Texas,2725 W 7th St,76107,,Bar,,,, Eatery
1012,Triple J Chophouse And Brew Co,Colleyville, Texas,1807 Buddy Holly,79409,,,Brewery,Store,, Eatery
1013,True Vine Brewing Company,Tyler, Texas,219 S Englewood Ave,75702,, Bar,Brewery,,,
1014,Tucker's Beer & Wine,Kilgore, Texas,443 State Highway 31 E,75662,,,,Store,,
1015,Tupps Brewery,McKinney, Texas,721 Anderson St,75069,, Bar,Brewery,,,
1016,Twin Liquors,Austin, Texas,1700 W Parmer Ln,78727,,,,Store,,
1017,Twin Liquors #16,Austin, Texas,11637 Research Blvd,78759,,,,Store,,
1018,Twin Liquors #22,Austin, Texas,107 W Stassney Ln,78745,,,,Store,,
1019,Twin Liquors #6,West Lake Hills, Texas,701 S Capital of Texas Hwy Ste B200,78746,,,,Store,,
1020,Twin Liquors #72,San Antonio, Texas,9234 N Loop 1604 W Ste 126,78249,,,,Store,,
1021,Twin Liquors Marketplace - Hancock,Austin, Texas,1000 E 41st St Ste 810,78751,,,,Store,,
1022,Twin Liquors Marketplace At The Galleria,Austin, Texas,3925 Market St,78738,,,,Store,,
1023,Twin Peaks Brewing Co.,Irving, Texas,1500 Market Pl,75063,, Bar,Brewery,,, Eatery
1024,Twisted Root Burger Co.,Dallas, Texas,5609 SMU Blvd Ste 102,75206,Lower Greenville,Bar,,,, Eatery
1025,Twisted X Brewing Company,Dripping Springs, Texas,23455 W RR 150,78620,, Bar,Brewery,,,
1026,Two Rows Restaurant & Brewery,Allen, Texas,711 Central Expressway South,75013,,,Brewery,,, Eatery
1027,Tycoon Flats,San Antonio, Texas,2926 N Saint Mary's St,78212,,Bar,,,, Eatery
1028,Umami Mia Pizzeria,Austin, Texas,1500 Barton Springs Rd,78704,,Bar,,,, Eatery
1029,Uncle Billy's Brew & Que,Austin, Texas,1530 Barton Springs Rd,78704,, Bar,Brewery,,, Eatery
1030,Uncle Buck's Brewery & Steakhouse,Grapevine, Texas,2501-1 Bass Pro Dr,76051,, Bar,Brewery,,, Eatery
1031,Under The Radar Brewery,Houston, Texas,1506 Truxillo St,77004,, Bar,Brewery,,,
1032,Union Park,Dallas, Texas,1311 Main St,75202,Downtown, Bar,,,, Eatery
1033,United Supermarket,Amarillo, Texas,5807 Southwest 45th Ave,79106,,,,Store,,
1034,University Draft House,Edinburg, Texas,2405 W University Dr,78539,,Bar,,,, Eatery
1035,Up In Smoke,Keller, Texas,134 South Main,76248,,Bar,,,, Eatery
1036,Valhalla,Houston, Texas,6100 Main St,77005,,Bar,,,,
1037,Van Der B\'f6nerbosch Brewing Company,Houston, Texas,P.O. Box 11531,77391,,,Brewery,,,
1038,Vintropolis City of Wine,Houston, Texas,10001 Westheimer Rd Ste 2695,77042,,Bar,,,,
1039,Waco Bar Supply Inc,Waco, Texas,225 LaSalle,76712,,,,Store,,
1040,Wakefield CrowBar,Houston, Texas,954 Wakefield Dr,77018,,Bar,,,, Eatery
1041,Waldron Lodge,Dallas, Texas,408 W 7th St,75208,Oak Cliff,Bar,,,, Eatery
1042,Waller Creek Pub House,Austin, Texas,603 Sabine St,78701,,Bar,,,, Eatery
1043,Walmart,Fredericksburg, Texas,1435 E Main St,78624,,,,Store,,
1044,Waterloo Ice House,Austin, Texas,14900 Avery Ranch Blvd Ste B100,78717,,Bar,,,, Eatery
1045,Waxy O'Connor's,San Antonio, Texas,234 River Walk St,78205,,Bar,,,, Eatery
1046,Weathered Souls Brewing Co.,San Antonio, Texas,606 Embassy Oaks #500,78216,, Bar,Brewery,,,
1047,Weights + Measures,Houston, Texas,2808 Caroline St,77004,,Bar,,,, Eatery
1048,Westwoods Liquor,Austin, Texas,3201 Bee Cave Rd Ste 130,78746,,,,Store,,
1049,What's On Tap,Keller, Texas,201 Town Center Ln Ste 1107,76248,,Bar,,,,
1050,What's On Tap,Highland Village, Texas,2570 FM 407 #170,75077,,Bar,,,,
1051,WhichCraft Beer Store,Austin, Texas,2110 S Lamar Blvd Ste F,78704,,,,Store,,
1052,WhichCraft Tap Room & Bottle Shop,Austin, Texas,1900 Simond Ave Ste 200,78723,,Bar,, Store,,
1053,Whip In 117,Flower Mound, Texas,2240 Morriss Rd#100,75028,,,,Store,,
1054,Whiskey Cake Kitchen And Bar,Plano, Texas,3601 Dallas Pkwy,75093,,Bar,,,, Eatery
1055,Whistle Post Brewing,Pilot Point, Texas,219 W Division St ,76258,, Bar,Brewery,,,
1056,Whitestone Brewery,Cedar Park, Texas,601 E Whitestone Blvd Ste 500,78613,, Bar,Brewery,,,
1057,Whole Foods - Post Oak,Houston, Texas,1700 Post Oak Blvd Ste 100,77056,, Bar,, Store,, Eatery
1058,Whole Foods -- Montrose,Houston, Texas,701 Waugh Dr,77019,,Bar,, Store,, Eatery
1059,Whole Foods Market,Highland Village, Texas,4041 Waller Crk,75077,,Bar,, Store,, Eatery
1060,Whole Foods Market,Austin, Texas,9607 Research Blvd #300,78759,,,,Store,,
1061,Whole Foods Market,Colleyville, Texas,4801 Colleyville Blvd,76034,,Bar,, Store,, Eatery
1062,Whole Foods Market,Plano, Texas,2201 Preston Rd Ste CP,75093,,,, Store,,
1063,Whole Foods Market,Fairview, Texas,105 Stacy RdFairview,75069,,,,Store,,
1064,Whole Foods Market,Arlington, Texas,801 E Lamar Blvd,76011,,,,Store,,
1065,Whole Foods Market - Alamo Quarry,San Antonio, Texas,255 E Basse Rd Ste 130,78209,,,,Store,,
1066,Whole Foods Market - Arbor Trails,Austin, Texas,4301 W William Cannon Dr Ste B800,78749,,Bar,,Store,, Eatery
1067,Whole Foods Market - Bellaire,Houston, Texas,4004 Bellaire Blvd,77025,,Bar,, Store,,
1068,Whole Foods Market - Champions,Houston, Texas,10133 Louetta Rd,77070,,Bar,, Store,, Eatery
1069,Whole Foods Market - Domain,Austin, Texas,11920 Domain Dr,78758,,Bar,, Store,, Eatery
1070,Whole Foods Market - Forest,Dallas, Texas,11700 Preston Rd Ste 714,75230,North Dallas,,,Store,,
1071,Whole Foods Market - Highland Park,Dallas, Texas,4100 Lomo Alto Dr,75219,Victory Park,Bar,, Store,, Eatery
1072,Whole Foods Market - Kirby,Houston, Texas,2955 Kirby Dr,77098,,,, Store,,
1073,Whole Foods Market - Lakewood,Dallas, Texas,2118 Abrams Rd,75214,Lakewood,Bar,, Store,, Eatery
1074,Whole Foods Market - Lamar,Austin, Texas,525 N Lamar Blvd,78703,,Bar,, Store,, Eatery
1075,Whole Foods Market - Park Lane,Dallas, Texas,8190 Park LnSte 351,75231,Lake Highlands,Bar,, Store,, Eatery
1076,Whole Foods Market - Vineyard,San Antonio, Texas,18403 Blanco Rd,78258,,Bar,, Store,, Eatery
1077,Whole Foods Market - Wilcrest,Houston, Texas,11145 Westheimer Rd,77042,,,,Store,,
1078,Whole Foods Market - Woodway,Houston, Texas,6401 Woodway Dr Ste 149,77057,,,,Store,,
1079,Whole Foods Market / Thunderbird Taproom,El Paso, Texas,100 Pitt St,79912,,Bar,, Store,, Eatery
1080,Wholly Cow Burgers / ZEN Food Mart,Austin, Texas,3010 S Lamar Blvd Ste A,78704,,,, Store,,Eatery
1081,Wichita Homebrew Supply,Iowa Park, Texas,3274 Rogers RdIowa Park,76367,,,,,Homebrew Store,
1082,Wicked Beaver Brewing Company,Wolfforth, Texas,10611 Country Rd 1320 Unit 1,79382,,,Brewery,,,
1083,Wiggy's on 6th,Austin, Texas,1130 W 6th St,78703,,,,Store,,
1084,Wild Acre Brewing Company,Fort Worth, Texas,1734 E El Paso St #190,76102,, Bar,Brewery,,,
1085,Wild Bunch Brewing Co,La Grange, Texas,P.o. Box 0700La Grange,78945,,,Brewery,,,
1086,Wimberley Brewing Company And Brewpub,Wimberley, Texas,9595 Ranch Rd 12,98676,, Bar,Brewery,,, Eatery
1087,WineStyles,Flower Mound, Texas,6100 Long Prairie Rd,75028,,,,Store,,
1088,Wired Willys,Fort Worth, Texas,710 Carroll St,76107,,Bar,,,,
1089,Woodcreek Brewing Company,Rockwall, Texas,1400 E I30,75087,, Bar,Brewery,,,
1090,Woodshed Smokehouse,Fort Worth, Texas,3201 Riverfront Dr,76107,,Bar,,,, Eatery
1091,Wooster's Garden,Houston, Texas,3315 Milam St,77006,,Bar,,,, Eatery
1092,World Beer Co. The Bottle Shop,Dallas, Texas,2116 Greenville Ave,75206,Lower Greenville,Bar,, Store,,
1093,World Market,El Paso, Texas,1327 George Dieter Dr,79936,,,,Store,,
1094,World Market,Corpus Christi, Texas,5425 South Padre Island Dr,78411,,,,Store,,
1095,World Market,Dallas, Texas,5500 Greenville Ave Ste 300,75206,Lower Greenville,,,Store,,
1096,World of Beer,Katy, Texas,2643 Commercial Center Blvd Ste B390,77494,,Bar,,,,
1097,World of Beer,Arlington, Texas,5005 S Cooper St Ste 183,76017,,Bar,,,, Eatery
1098,World of Beer,Fort Worth, Texas,3252 W 7th St,76107,,Bar,,,, Eatery
1099,World Of Beer,Sugar Land, Texas,16535 Southwest Freeway #2605,77479,,Bar,,,, Eatery
1100,Wright Bros. Brew & Brew,Austin, Texas,500 San Marcos St Ste 105,78702,,Bar,,,, Eatery
1101,Wurzbach Ice House,San Antonio, Texas,10141 Wurzbach Rd,78230,,Bar,,,, Eatery
1102,Yard House,Houston, Texas,800 Sorella Ct,77024,,Bar,,,, Eatery
1103,Yard House,San Antonio, Texas,15900 La Cantera Pkwy,78256,,Bar,,,, Eatery
1104,Yard House,Dallas, Texas,5100 Belt Line Rd,75254,Addison,Bar,,,, Eatery
1105,Ye Olde Bull & Bush,Fort Worth, Texas,2300 Montgomery St,76107,,Bar,,,,
1106,Zaragoza Discount Liquor,El Paso, Texas,5140 Fairbanks Dr Ste 7,79924,,,,Store,,
1107,Zax Restaurant & Bar,Austin, Texas,312 Barton Springs Rd,78704,,Bar,,,, Eatery
1108,Zelicks,San Marcos, Texas,336 W Hopkins St,78666,,Bar,,,,
1109,Zero One Ale House,San Angelo, Texas,20 W Beauregard Ave,76903,, Bar,Brewery,,, Eatery
1110,Zilker Brewing Co.,Austin, Texas,1701 E 6th St,78702,, Bar,Brewery,,,